Id,Code,Name,Address,City,State,Zip,Phone,Email
0,9501-lwitt-1426,Tiffany's EEternity Swing and Bank,717 Mckeever Ln,Tillmans Corner,Alabama,36550,702-579-0345,bank@Tiffany.net
1,751-oqby-1262,Gloin's Quote AArc Br Building Inspection,631 Faircrest Run,,North Dakota,58257,203-327-1318,
2,hpk-559-504,Sylvia's Agree LLillith  Locksmith,996 Fairview Path,Wolcott,Connecticut,6150,,
3,1058-mpo-7030,Elendil's Confess EElphina Remodeling,1432 Garst Park,Springfield,Missouri,63012,,remodeling@Elendil.org
4,712-omagf-815,Quickbeam's Replacement Strengthen and Investing,714 Peachblow Run,Elizabethtown,Kentucky,40544,423-274-3314,Andrea.Quickbeam@replacementinvesting.org
5,voyc-9778-7954,Kili's Response Agree and Massage and Day Spa,1492 Robinwood Run,Cookeville,Tennessee,37777,218-819-2367,
6,ekuok-5321-848,Gandalf's Fancy GGriffin  Embalmer,1357 Scenic Heights,Concord,New Hampshire,3230,207-946-3133,
7,71915-oiqe-5640,Gloin's AAshen  Swing and Fitness Center,862 Galway Street,Westbrook,Maine,4091,,Jessica.Gloin@fitnesscenter.net
8,44197-tyivv-6221,Elladan's Engine Attach and Cash Advances,1146 Fleek Parkway,Eagle,Idaho,83860,252-722-4963,
9,fyif-843-836,Yvette's Serve Idea Record Business,1197 Nottingham Blvd,Braintree,Massachusetts,2601,385-531-7790,Lydia.Yvette@idearecordbusiness.biz
10,1841-jpmpa-6384,Pharazon's Dedicate WWill Specialty Meat,1446 Hazlett Heights,Payson,Utah,84091,304-517-2513,specialtymeat@Pharazon.net
11,xoiyi-7246-1009,Brandon's Quote Disease Truck Transportation,1204 Delwood Crescent,,West Virginia,25832,,trucktransportation@Brandondisease.us
12,frxxl-3537-6169,Nimrodel's Hurry TThist Remodeling,1269 Garrett Place,Gillette,Wyoming,82801,,
13,cgryg-813-9588,Yavanna's AAyda V Fund and Private Investigator,1389 Helpar Heights,,New Mexico,88032,203-915-4478,privateinvestigator@Yavanna35.us
14,ctj-675-3955,Stormcrow's Release Wood Remodeling,1348 Beard Court,Wilton,Connecticut,6065,240-869-5420,remodeling@Stormcrowwood.org
15,zabwy-3270-82448,Jose's Weaken Estate Residential Care Facility,1525 Goosecreek Terrace,Kalispell,Montana,59934,,residentialcarefacility@Joseestate.co.uk
16,409-uudp-8387,Faramir's Chat EEldia M Electrolysis,1549 Solida St,Monroe,Louisiana,71106,458-879-0563,Hope.Faramir@electrolysis.org
17,xyc-3698-556,Hurin's Judge Permission Insurance,1798 Mccarley Crescent,Raytown,Missouri,64649,262-017-0988,
18,wrsyl-5653-2738,Orodreth's Target AArlin Tanning Salon,1067 Leonardville Blvd,Wausau,Wisconsin,54488,205-686-3780,Justin.Orodreth@tanningsalon.net
19,731-lcm-449,Carla's ZZima  Convince and Crop Production,1139 Blue Blvd,Opelika,Alabama,36907,423-642-4991,
20,7338-wgg-5335,Nienna's Skill Form and Whiskey Manufacturing,1366 Evergreen Station,Johnson City,Tennessee,38042,,Sean.Nienna@skillwhiskeymanufacturing.org
21,86986-qkz-8026,Ungoliant's Release Media Technology Services,1560 Mcowens Road,Fuquay-Varina,North Carolina,27920,240-979-7043,Megan.Ungoliant@mediatechnologyservices.com
22,10261-eqj-326,The White's Judge Death Massage and Day Spa,1651 Imlay Ln,Kalispell,Montana,59107,239-225-3580,massageanddayspa@The Whitedeath.biz
23,daliq-2745-97375,Victoria's Chat Physics Collection Agency,733 Pearl Way,Poinciana,Florida,33018,859-582-4181,Ryan.Victoria@physicscollectionagency.co.uk
24,uzthj-5886-30311,Sage's Philosophy Know and Casino,1590 Butler Drv,Covington,Kentucky,41713,,
25,5832-gso-7324,Bolger's Collect Tension Crop Production,1411 Richmond Square,Manchester,Missouri,63767,859-739-8274,cropproduction@Bolgertension.com
26,60516-ukp-441,Orodreth's Requirement Convince and Residential Care Facility,860 Willow Rd,Bowling Green,Kentucky,41847,302-603-3236,Eleanor.Orodreth@requirementresidentialcarefacility.net
27,lstsm-5738-231,Logan's Twist Secretary Nail Salon,662 Creekview Circle,Dover,Delaware,19706,208-596-1963,Willie.Logan@secretarynailsalon.org
28,hlxz-201-10258,Logan's ZZima  Look and Home Health Services,1022 Gibbard Ridge,Caldwell,Idaho,83639,406-845-0493,homehealthservices@Logan.us
29,72843-vlw-1414,Gildor's Suffer Tradition Barber Shop,1667 Peachblow Path,Oceanside,New York,11742,802-421-0604,barbershop@Gildortradition.biz
30,irfmv-930-465,Rose's Wood Test and Equipment Rentals,1583 Arborwood Road,South Burlington,Vermont,5143,,equipmentrentals@Rosewood.net
31,170-yghvo-7915,Patricia's Quote Reality Personal Assistant,1120 Martin Ln,Beverly Cove,Massachusetts,2647,212-402-1780,Ann.Patricia@realitypersonalassistant.org
32,jefa-381-445,Smeagol's AAgnes  Look and Chiropractic Office,1498 Kimes Drv,Hyattsville,Maryland,20862,405-771-7924,chiropracticoffice@Smeagol.co.uk
33,zmzc-2740-46830,Oakenshield's GGene Hurry and Racetrack,1159 Hall Court,Greenwood,Mississippi,39114,209-150-6623,
34,40672-ylem-216,Brian's Desk Arrest and Pawn Brokers,1554 Jensen Boulevard,Chowchilla,California,92251,,Maria.Brian@deskpawnbrokers.co.uk
35,cmugi-372-57714,Mark's SSeraphim  Test and Architecture,1359 Mcdonald Ridge,Badger,Alaska,99929,228-486-4046,architecture@Mark.org
36,2514-pmabs-6091,Pollando's Outcome Twist and Storage,1800 Union Rd,Hopatcong Hills,New Jersey,7430,480-509-8761,
37,958-bwra-537,Vivianna's Brainstorm AAnnalle Contracting,930 Raiders Drive,Sierra Vista,Arizona,86042,405-147-1656,contracting@Vivianna.biz
38,emhuy-2515-3127,Miranda's Replacement Release and Equipment Rentals,973 Ruth Path,Starkville,Mississippi,39442,423-005-2344,equipmentrentals@Mirandareplacement.org
39,38570-leaij-4471,Morgoth's Arrest MMax M Wholesale Drug Distribution,1536 Cleve Road,East Ridge,Tennessee,37918,304-824-8625,Ralph.Morgoth@wholesaledrugdistribution.net
40,5372-opoe-647,Angela's Tension Spring and Trade School,717 Bloomfield Heights,,West Virginia,26253,217-685-0451,tradeschool@Angelatension.org
41,sfyqo-3297-3060,Barahir's Understand Weakness Hospital,748 Fleek Ln,East Saint Louis,Illinois,61422,218-948-1221,hospital@Barahirweakness.com
42,9554-ermhp-4811,Willow's Select Fortune Credit Union,1636 Kennedy Road,Concord,New Hampshire,3756,859-046-5309,
43,uxsmm-289-825,Yavanna's Understand Profession Nail Salon,932 Obetz Court,Shively,Kentucky,42372,303-546-5936,
44,xrb-8728-514,Lilly's JJinx Brainstorm and Landscape Services,1667 Lawn Avenue,Aurora,Colorado,81020,209-874-1081,
45,cic-349-4812,Ivy's YYello Receive and Cash Advances,1215 December Drive,Marina,California,94701,702-641-9781,cashadvances@Ivy.us
46,dvto-8519-1549,Bregolas's Skill Precede and Substance Abuse Services,994 Lacon Road,,North Dakota,58843,,Sarah.Bregolas@skillsubstanceabuseservices.biz
47,turo-3773-73683,Judith's Beer Fancy and Specialty Meat,509 Morgantown Parkway,,New Mexico,87052,,
48,ptiu-5193-59821,Christopher's Tension Impress and Home Health Services,663 Carl Lane,Las Vegas,Nevada,89703,701-083-7838,homehealthservices@Christophertension.co.uk
49,ulw-818-36660,Sharon's Prevent SSybi Cemetery,424 Willow Court,Birmingham,Michigan,49725,229-554-6711,cemetery@Sharon.us
50,75616-nxkb-985,Turin's Form SSeraphim  Casino,965 Sonora Lane,Peachtree City,Georgia,31795,,Brianna.Turin@casino.com
51,312-nlpx-2993,Bracegirdle's Death Copy and Construction and Utilities,589 Baird Park,,West Virginia,25667,479-445-6153,Christopher.Bracegirdle@deathconstructionandutilities.com
52,xlgv-4082-54749,Susan's Convince Farmer Landscape Services,749 Sandra St,Fayetteville,Arkansas,72433,228-223-1141,landscapeservices@Susanfarmer.us
53,930-jks-8631,April's Flight Step and Interior Design,815 Shinick Circle,Bridgeton,New Jersey,8218,702-074-3690,Brooke.April@flightinteriordesign.co.uk
54,zgdgf-8543-5168,Jacqueline's Release AAyda V Wholesale Drug Distribution,758 Coventry Station,,North Dakota,58311,201-878-5866,Abigail.Jacqueline@wholesaledrugdistribution.co.uk
55,555-xgu-854,Ori's Gasp Artisan NPO,1610 Francis Trail,Altus,Oklahoma,73802,,Makenzie.Ori@artisannpo.org
56,sgnk-3406-349,Kili's Exceed Salad Funeral Director,1608 Creedmoor Street,,North Dakota,58060,405-214-5259,funeraldirector@Kilisalad.org
57,901-zyhf-994,Julia's Target AAsema Cash Advances,1516 Highview Square,Starkville,Mississippi,39151,405-860-0231,cashadvances@Julia.us
58,fqm-669-678,Erestor's Question Wood Drug Screening,845 Hickory Court,Vicksburg,Mississippi,38622,303-019-0487,Makenzie.Erestor@wooddrugscreening.com
59,ofoa-748-79156,Camilla's IIlta Serve and Wholesale Drug Distribution,919 Belden St,Erie,Colorado,80723,513-536-1650,Megan.Camilla@wholesaledrugdistribution10.org
60,164-dwwln-6239,Maedhros's LLace Instruct and Home Health Services,1314 Lafayette Run,Bloomington,Minnesota,55008,319-799-2812,
61,607-srpwh-122,Finwe's EEldia M Attach and Speech and Occupational Therapy,1563 Price Ridge,Muscatine,Iowa,52807,,Justin.Finwe@speechandoccupationaltherapy.com
62,50011-xmcfk-1196,Beren's People Confess and Massage and Day Spa,553 Meadowbrook Way,Mitchell,South Dakota,57057,218-816-8670,
63,nom-3419-826,Chloe's Store EElza  Fishing and Hunting,1700 Aeryview Road,Keene,New Hampshire,3450,219-619-4537,Maria.Chloe@fishingandhunting.net
64,itvog-440-4123,Grahame's SSeraphim  Step and Storage,549 Donald Parkway,Vincennes,Indiana,47232,,storage@Grahame.biz
65,4132-gskqr-3866,Kili's Travel Media Barber Shop,648 Range Boulevard,Badger,Alaska,99630,479-287-4024,Veronica.Kili@mediabarbershop.co.uk
66,548-oftre-644,Justin's Strengthen HHazelmer Building Inspection,1355 Clarendon Road,North Little Rock,Arkansas,71731,479-277-1489,buildinginspection@Justin.com
67,2401-tdy-709,Olorin's IIlta Benefit and Security Guard,1224 Burlington Parkway,Springdale,Arkansas,72048,,
68,774-wkjz-856,The Grey's Twist Poetry Repair and Maintenance,443 Wilmington Avenue,Brandon,Mississippi,39121,405-892-9134,repairandmaintenance@The Greypoetry.org
69,diw-800-1062,Thingol's Select WWeiss M Employment Office,506 Baughman Trail,Clarksdale,Mississippi,38878,,
70,cfx-9223-754,Angelique's ZZillah Fancy and Technical School,1759 Darla St,Knoxville,Tennessee,37131,808-743-8146,
71,ezwz-668-161,Pollando's Release Entertainment Towing,1708 Beatty Ridge,Wahiaw+ä-ü,Hawaii,96810,319-658-8360,
72,jwxqi-8437-84433,Radagast's SSable  Insert and Electrolysis,1655 Bonsels Run,Davenport,Iowa,50543,458-785-6388,
73,2826-czt-6946,Maria's AAdrien Gasp and Contracting,723 Mead Drive,Warrensburg,Missouri,64661,513-861-3758,Jenny.Maria@contracting.us
74,3247-avuax-401,Barahir's Response Brainstorm and Crop Production,852 Sevall Ln,Coon Rapids,Minnesota,56325,207-664-2300,Victoria.Barahir@responsecropproduction.us
75,eqdj-182-388,Telchar's Spring CCalami Technology Services,669 College Rd,Saco,Maine,4616,,Kathryn.Telchar@technologyservices.co.uk
76,cpq-963-499,Huan's AAyda V Weaken and Accounting,1566 Turtle Station,Casas Adobes,Arizona,85738,212-468-2155,Theodore.Huan@accounting12.co.uk
77,28073-hhfet-254,Jamie's MMargo Copy and Tutoring Services,837 Narrows Parkway,Pasadena,Maryland,20816,859-938-6250,tutoringservices@Jamie12.net
78,772-kzlgl-146,Camilla's PPandora  Insert and Insurance,887 Lacon Blvd,Valley Station,Kentucky,40472,239-343-8014,
79,iit-411-478,Melian's Understand People Mortgage Company,1608 Burnell Run,Punta Gorda,Florida,33435,605-289-7566,mortgagecompany@Melianpeople.biz
80,10130-hvmvy-2760,Lori's MMorrin C Pay and Marketing and Advertising,1442 Euclid Park,Watertown,South Dakota,57738,808-066-6682,marketingandadvertising@Lori.us
81,48426-ounf-2443,Bofur's Skill Copy and Security Guard,838 Dryden Circle,Wahiaw+ä-ü,Hawaii,96847,,securityguard@Bofurskill.net
82,26576-qark-6433,Thorondor's EEternity Precede and Athletic Training,1669 Sealover Blvd,Newton,Kansas,67036,808-028-7501,athletictraining@Thorondor.biz
83,28025-bvkzn-428,Ungoliant's Brainstorm Beer Drug Screening,454 Fulbrook Parkway,+óGé¼-£Ewa Gentry,Hawaii,96811,,Gabriella.Ungoliant@beerdrugscreening.com
84,10393-hhvyg-4763,Jackson's Benefit AAshen  Oil and Gas Distribution,708 Eastwood Terrace,Fort Worth,Texas,78152,480-782-3271,
85,173-xtg-236,Jerry's GGene Hurry and Cemetery,647 Leslie Road,Tempe Junction,Arizona,85203,406-887-6317,Josie.Jerry@cemetery.com
86,225-zdr-478,Valaquenta's TThist Look and Residential Care Facility,1635 Beam Parkway,New City,New York,12050,,
87,vqytp-4043-8425,Jackson's Spring Wife Used Car Sales,1205 Norfield Way,,North Dakota,58771,316-270-3440,Gabriel.Jackson@wifeusedcarsales.com
88,vfqh-601-70722,Eugene's Agree Throat Bakery,732 Dawson Avenue,Junction City,Kansas,67857,276-802-0812,bakery@Eugenethroat.org
89,71600-xrqtj-5226,Liv's Judge LLace Marketing and Advertising,1304 Milton Circle,Fort Hunt,Virginia,22107,458-715-0315,Bethany.Liv@marketingandadvertising.org
90,837-lfv-8624,Telchar's LLillith  Precede and Oil and Gas Extraction and Production,1768 Towers Street,Cape Girardeau,Missouri,65049,205-645-5218,
91,13693-wwbos-817,Victoria's Question Weakness Trade School,1511 Albert Terrace,Troy,Alabama,36628,225-772-8184,Juliet.Victoria@weaknesstradeschool.us
92,kfo-596-6229,Megan's Praise Death Catering,816 Pinkley Court,Marrero,Louisiana,71363,605-229-9068,Daniel.Megan@deathcatering.com
93,3325-cybl-211,Lawrence's EEternity Slam and Electrolysis,1342 Grace Square,Brookings,South Dakota,57384,802-792-0979,Judy.Lawrence@electrolysis.biz
94,28496-zxp-798,Elijah's Spring Weakness Agriculture & Forestry and Wildlife Extermination and Pest Control,1722 Mary Circle,South Burlington,Vermont,5143,702-395-5275,Angela.Elijah@weaknessagriculture&forestryandwildlifeexterminationandpestcontrol.us
95,rqr-1893-148,Michelle's AAgnes  Know and Cemetery,1332 Hanawalt Heights,,North Dakota,58214,303-311-9325,cemetery@Michelle.co.uk
96,whlcx-7864-48825,Ruth's Bath Look and Home Inspection,692 Beulah Ave,Lakewood,Colorado,80301,,homeinspection@Ruthbath.net
97,pqs-585-61793,Huan's Test MMargo Security Guard,1592 Wilkins Avenue,Coralville,Iowa,51551,,securityguard@Huan.biz
98,efpo-4862-684,Veronica's WWill Insert and Tax Preparation,1397 Dowling Drv,Wyckoff,New Jersey,7978,458-769-5836,taxpreparation@Veronica.co.uk
99,48299-ipidj-8861,Bombadil's LLace Chat and Locksmith,1540 Elfin Street,Grandview,Missouri,65051,225-723-9628,
100,eeax-419-622,Lilly's Slam Desk Athletic Training,1467 Wheelabout Parkway,Gretna,Louisiana,71152,702-459-9308,
101,wsu-6060-63351,Sara's Gasp Tennis Specialty Seafood,1532 Chase Station,,North Dakota,58444,201-947-8472,specialtyseafood@Saratennis.net
102,eceua-5546-745,Mitch's Impress LLuna Catering,1636 Dyer Drive,Muskogee,Oklahoma,73155,304-683-3941,catering@Mitch.net
103,oqgas-519-633,Mithrandir's Test Salad Telemarketing,781 Camden Ln,,West Virginia,25989,316-453-2676,telemarketing@Mithrandirsalad.us
104,5906-jogl-204,Levi's ZZima  Benefit and Video Production,1121 Harrison St,Emporia,Kansas,67235,907-803-3783,videoproduction@Levi.us
105,77681-qqufb-4286,Miriel's Swing Tension Fishing and Hunting,546 Roper Trail,Badger,Alaska,99576,385-285-6263,
106,tfyup-7490-37727,John's Spring Entertainment Cash Advances,1387 Schuler Drive,Murray,Utah,84791,206-555-7479,cashadvances@Johnentertainment.com
107,qwa-352-7389,Wendy's Travel IIlta Radiology,1120 Stiers Parkway,Spokane,Washington,98330,,Sylvia.Wendy@radiology.biz
108,9608-pll-879,Thomas's Strengthen Idea Security System Services,1380 Yost Parkway,Rochester,New Hampshire,3815,,securitysystemservices@Thomasidea.biz
109,wanw-4761-21763,Cotton's Target Bath Land Surveying,1616 Obetz Boulevard,Waipahu,Hawaii,96762,605-407-7762,
110,mhx-547-390,Wayne's Reputation Attach and Cemetery,1579 Crosier Place,Mitchell,South Dakota,57346,,cemetery@Waynereputation.co.uk
111,curaa-5794-692,Niki's Outcome Target and Photography,944 Jessamine Place,Mauldin,South Carolina,29541,339-670-4667,Jenny.Niki@outcomephotography.net
112,732-yxs-636,Gerald's Throat Instruct and Cosmetology School,1530 Sharon Path,Hastings,Nebraska,68849,231-572-0474,Peter.Gerald@throatcosmetologyschool.us
113,728-klw-1304,Pollando's Spring AAshen  Interior Design,852 Codell Heights,Henderson,Nevada,89015,209-205-3529,Robert.Pollando@interiordesign.org
114,tgimd-509-404,Chloe's Copy Diamond Real Estate Agency,1057 Shoop Station,Diamond Bar,California,95631,,realestateagency@Chloediamond.biz
115,utz-451-146,Erika's Disease Gasp and Casino,1346 Martin Drive,Lansdale,Pennsylvania,16052,207-687-1511,casino@Erikadisease.com
116,902-kfwug-4903,Finwe's Question RRoshia Chr Florist,867 Chewelah Drv,Biddeford,Maine,4628,405-029-2937,florist@Finwe.org
117,5576-aluce-276,Justin's MMemory Ad Precede and Bookkeeping,1769 Eastview Trail,Vicksburg,Mississippi,38726,252-010-3262,bookkeeping@Justin.biz
118,95954-zksp-2140,Brianna's Throat Slam and Landscape Services,789 Axline St,Franklin,Massachusetts,2722,458-837-8519,
119,4025-qccy-572,Kili's Fancy LLillith  Vocational School,1752 Wolfe Lane,Maryland Heights,Missouri,64783,,Angela.Kili@vocationalschool.biz
120,okwph-7473-225,Daniella's Outcome Improve and Racetrack,501 Peachblow St,Wailuku,Hawaii,96717,505-105-8434,Scarlet.Daniella@outcomeracetrack.biz
121,84733-dbf-763,Norah's Gasp Engine Event Planning,816 Lafayette Lane,,Oregon,97920,,Benjamin.Norah@engineeventplanning.biz
122,nltfz-8207-970,Oakenshield's Convince Reputation Concrete Manufacturing,623 Villa Blvd,Madison Heights,Michigan,49064,701-683-7279,Sydney.Oakenshield@reputationconcretemanufacturing.co.uk
123,9136-khbq-6155,Annatar's Select Diamond Auto Dealership,942 Airport Drv,Jackson,Michigan,48347,210-230-6065,autodealership@Annatardiamond.co.uk
124,11595-vllwo-616,Orome's Climate Arrest and Tax Preparation,700 Blocksom Station,Cibolo,Texas,76483,252-288-8362,taxpreparation@Oromeclimate.co.uk
125,14508-dxmq-6699,Wormtongue's Insert PPandora  Interior Design,677 Lark Run,Danvers,Massachusetts,1090,,interiordesign@Wormtongue.com
126,cxxha-351-4922,Donna's GGriffin  Question and Racetrack,1317 Lucasburg Way,Newton,Iowa,50675,808-457-9978,racetrack@Donna.com
127,cfgm-9240-7928,Gamgee's YYello Gasp and Alcohol and Tobacco Sales,1132 Restless Boulevard,Kailua,Hawaii,96754,,Carla.Gamgee@alcoholandtobaccosales.com
128,vdp-9093-5969,Miranda's Swing AAsema Construction,602 Tupedo Park,Whitney,Nevada,89428,316-673-4221,Benjamin.Miranda@construction.co.uk
129,97916-ergts-846,Larissa's LLaw Gasp and Medical Office,503 Orders Path,Liberal,Kansas,67581,240-407-1453,medicaloffice@Larissa.net
130,3181-xyu-894,Fingolfin's WWill Decorate and Property Management,1329 Freedom Rd,Great Falls,Montana,59756,701-561-8770,Sarah.Fingolfin@propertymanagement.us
131,jixo-822-29153,Carol's SSybi Decorate and Casino,1615 Crossgate Way,Kentwood,Michigan,48255,405-763-0628,Barbara.Carol@casino2.biz
132,vsf-4993-512,Theoden's Brainstorm LLuce Naxx Fishing and Hunting,1524 Pershing St,Olive Branch,Mississippi,39754,701-445-0478,fishingandhunting@Theoden20.us
133,xror-827-3942,Arthur's LLillith  Collect and Photography,473 Detroit Crescent,Ann Arbor,Michigan,48346,605-261-6960,
134,kaam-662-719,Grace's Precede YYello Telemarketing,958 Harmony Path,Rapid City,South Dakota,57422,458-899-1844,Christina.Grace@telemarketing.com
135,938-oud-218,Halbarad's Instruct Secretary Security System Services,917 Armco Crescent,Maryland Heights,Missouri,63531,,Lida.Halbarad@secretarysecuritysystemservices.org
136,6246-laj-8148,Maeglin's Charity Convince and Construction,1224 Clevenger Parkway,Dyersburg,Tennessee,37756,203-106-2140,Natalie.Maeglin@charityconstruction.net
137,dptlg-400-2684,Michaela's Dedicate MMorrin C Janitorial and Cleaning Services,1461 Discovery Boulevard,Westport,Connecticut,6075,480-400-0334,Willie.Michaela@janitorialandcleaningservices.biz
138,slija-385-754,Beregond's SSable  Know and Landscape Services,889 Powell Way,Yuma,Arizona,85077,217-084-9084,Rachel.Beregond@landscapeservices.org
139,8355-hvfjb-9318,Stormcrow's Quote Bath Land Surveying,921 Detroit Ridge,Mokena,Illinois,62817,,Larissa.Stormcrow@bathlandsurveying.org
140,6876-zbx-865,Terry's Decorate Bath Optometry,800 Norfield Ave,Beacon,New York,14898,276-422-4395,Cindy.Terry@bathoptometry.com
141,oplg-391-98271,Palantir's Replacement Weaken and Marketing and Advertising,1229 Holbein Lane,Fort Hunt,Virginia,22305,,Marilyn.Palantir@replacementmarketingandadvertising.us
142,zzqrx-439-6567,Eowyn's Decorate MMorrin C Nail Salon,1368 Parkwood Blvd,Gretna,Louisiana,70159,803-401-1623,Iris.Eowyn@nailsalon.co.uk
143,682-zhrh-935,Ivy's Hurry Idea Crop Production,1679 Mary Run,Myrtle Beach,South Carolina,29810,217-381-0572,Mackenzie.Ivy@ideacropproduction.us
144,29500-syf-464,Kate's Collect Salad Speech and Occupational Therapy,666 Deer Ridge,Skokie,Illinois,61656,479-168-6462,speechandoccupationaltherapy@Katesalad.com
145,346-ysa-678,Beregond's Swing EEternity Oil and Gas Distribution,1661 Dana Rd,Little Rock,Arkansas,72913,479-980-4075,oilandgasdistribution@Beregond.us
146,rklp-450-93557,Wendy's Strengthen TThess Cigarette Manufacturing,432 Ballov Station,Siloam Springs,Arkansas,71659,302-120-6945,Jennifer.Wendy@cigarettemanufacturing.us
147,srux-9575-57715,Earendil's AAdrien Copy and Bank,1516 Zane Court,Wilmington,Delaware,19725,808-021-7901,Dana.Earendil@bank.org
148,58055-fhrj-109,Dori's Fund Profession Home Health Services,972 Hartman Place,K+ä-üne+óGé¼-£ohe,Hawaii,96826,209-359-2089,Cheryl.Dori@professionhomehealthservices.com
149,gahef-3385-864,Emily's Dedicate Throat Mental Health Services,1373 Workman Crescent,San Jacinto,California,91363,228-668-5089,Isaiah.Emily@throatmentalhealthservices.com
150,41488-qmpf-8705,Legolas's Convince MMorrin C Architecture,1053 Beverly Street,Bayonne,New Jersey,8221,401-733-8101,architecture@Legolas.net
151,12168-obk-513,Patricia's Convince ZZillah Massage and Day Spa,1109 Busch Circle,Portsmouth,Rhode Island,2888,458-689-6766,Melissa.Patricia@massageanddayspa.org
152,961-wdoi-438,Brandybuck's Artisan Copy and Land Surveying,1081 Salgarber Run,Raytown,Missouri,65769,218-767-3029,Hanna.Brandybuck@artisanlandsurveying.biz
153,uddvu-601-8300,Miriel's Spring Skill Massage Therapy,1071 Kettering Terrace,Laconia,New Hampshire,3307,212-207-7990,massagetherapy@Mirielskill.com
154,ajvuo-2893-60973,Curufin's Revenue Strengthen and Private Investigator,1770 Ridge Blvd,Seabrook,Maryland,20625,802-976-7417,Randy.Curufin@revenueprivateinvestigator22.biz
155,xta-9267-9747,Willow's Artisan Twist and Auditing,532 Mckaig Court,South Burlington,Vermont,5750,206-718-9218,
156,97579-cqui-925,Gregory's Understand AArc Br Storage,601 Tammy Park,Longview,Washington,98054,423-670-0608,Gabriel.Gregory@storage.com
157,11793-bkkxm-3100,Durin's LLillith  Slam and Publishing Services,722 Applegate Run,Germantown,Tennessee,37110,405-612-1983,publishingservices@Durin.com
158,80757-thogi-4354,Oakenshield's Reputation Twist and Whiskey Manufacturing,637 Denning Rd,Tupelo,Mississippi,38801,,whiskeymanufacturing@Oakenshieldreputation68.biz
159,gckzg-761-690,Glorfindel's ZZayne Cr Serve and Livestock and Slaughtery,1623 Lancaster Court,Calhoun,Georgia,31632,218-399-7200,
160,rwyn-217-71077,Angela's Test WWill Publishing Services,1010 Lubring Ridge,East Concord,New Hampshire,3258,803-215-1232,
161,ownqw-1022-995,Wormtongue's Quote ZZillah Credit Union,1049 Ridge Court,Myrtle Beach,South Carolina,29828,802-486-4636,Ralph.Wormtongue@creditunion.us
162,aks-1729-58725,Eru's Idea Store and Embalmer,427 Ashburton Circle,Colchester,Vermont,5648,303-159-2780,
163,qjuzw-956-45887,Sylvia's Assumption Store and Security System Services,1257 Mundy Square,Clifton,Colorado,81154,207-030-8256,securitysystemservices@Sylviaassumption.org
164,5717-zpmym-5882,Evie's SSable  Protect and Personal Assistant,1065 Mcfarland Crescent,South Portland Gardens,Maine,4983,225-027-5012,Joan.Evie@personalassistant74.us
165,ebw-821-27959,Jacob's Spring MMax M Credit Union,1607 Cranfield Avenue,Laplace,Louisiana,70519,339-975-4235,Vincent.Jacob@creditunion.net
166,lmzdi-523-3414,Lucy's Exceed NNoirax De Pawn Brokers,883 Granville Park,Omaha,Nebraska,68730,215-020-9432,pawnbrokers@Lucy.net
167,548-jgxin-6066,Fili's Flight Fancy and Building Inspection,1312 Muirwood Parkway,Carlisle,Pennsylvania,18360,276-998-2770,Sara.Fili@flightbuildinginspection.co.uk
168,lqsu-207-1233,Shadowfax's Information Release and Technology Services,1562 Stokely Avenue,Fort Hunt,Virginia,23306,319-754-9270,
169,6301-hfdr-6158,Gandalf's Slam Tennis Auto Dealership,1736 Blossom St,Des Moines,Iowa,50241,603-060-8972,autodealership@Gandalftennis.net
170,382-bmqjz-315,Stormcrow's Salad Gasp and Locksmith,829 Village Trail,Medina,Ohio,43535,215-103-9201,
171,mss-2105-23441,Smeagol's Response Dedicate and Beauty Salon,1553 Rose Trail,Reading,Pennsylvania,15451,210-336-2376,Marilyn.Smeagol@responsebeautysalon.co.uk
172,xrsob-465-99721,Lilly's Decorate PPandora  Contracting,1686 Blalock Path,Big Spring,Texas,76162,907-887-0427,
173,uxsem-1371-9808,Mablung's Store Requirement Trade School,1392 Merryhill Terrace,Fairbanks,Alaska,99746,,
174,qqgqy-667-761,Toki's LLuna Chat and Barber Shop,1396 Locksmith Ave,Emporia,Kansas,66282,,
175,gxan-3089-95077,Dorothy's SScarlet Strengthen and Substance Abuse Services,946 Rockville St,,New Mexico,87581,210-973-8322,
176,58196-ysc-6657,Rose's Hospital Protect and Landscape Services,838 Nelson Circle,Fort Worth,Texas,78215,208-229-8396,landscapeservices@Rosehospital.com
177,39415-opp-6722,Alatar's Protect Revenue Event Planning,1351 Tarkman Rd,Coeur d'Alene,Idaho,83303,314-442-2858,Zachary.Alatar@revenueeventplanning.us
178,4574-cgj-301,Shagrat's Tradition Exceed and Florist,1216 Highland Square,,New Mexico,88430,385-341-2081,Maggie.Shagrat@traditionflorist.com
179,7080-xkge-930,Aldarion's Information Dedicate and Agriculture & Forestry and Wildlife Extermination and Pest Control,1093 Nora Ridge,Saint George,Utah,84750,225-661-0802,agriculture&forestryandwildlifeexterminationandpestcontrol@Aldarioninformation.net
180,zvrz-261-77262,Lida's Wood Arrest and Bakery,1025 Cleve Road,Shenandoah,Louisiana,71353,505-134-0521,bakery@Lidawood.co.uk
181,1662-czr-5088,April's Outcome Pay and Chiropractic Office,405 Stone Path,,Oregon,97324,458-727-7133,
182,4277-mxk-3043,Ferny's Look SScarlet Remodeling,1433 Charles Crescent,Saint Joseph,Missouri,65653,303-388-6961,
183,cuxqp-8622-69759,Tina's Prevent Bedroom Remodeling,474 Aspen Drv,Louisville,Colorado,81082,513-074-7195,
184,ajnde-2227-5587,Haley's AAdrien Swing and Used Car Sales,1011 Galigher Station,Duluth,Minnesota,55577,219-588-5343,
185,3159-pcg-736,Balin's ZZima  Copy and Agriculture & Forestry and Wildlife Extermination and Pest Control,1748 Graylock Way,Terre Haute,Indiana,47382,423-259-6907,Helena.Balin@agriculture&forestryandwildlifeexterminationandpestcontrol.co.uk
186,tulkr-2861-70147,Cotton's Select User Towing,1636 Harding Road,Nashville,Tennessee,37879,405-141-9700,
187,cuth-294-856,Monica's Dedicate Tension Lawn care Services,540 Royma Boulevard,Columbus,Mississippi,39204,,lawncareservices@Monicatension.us
188,ujo-518-178,Shirley's Arrest Revenue Pharmacy,1214 Tannehill Road,Clifton,Colorado,81427,,Lydia.Shirley@revenuepharmacy.org
189,34373-pqiwg-850,Gamgee's Improve SScarlet Car Rental,889 Salem Blvd,Westbrook,Maine,4086,406-873-9072,Andrea.Gamgee@carrental.co.uk
190,seesh-737-4778,Halbarad's Tradition Attach and Remodeling,1330 Eastfield Place,Oswego,New York,12483,,
191,93755-imjew-8545,Treebeard's Shirt Question and Beauty Salon,1086 Wayne Ave,Hilton Head Island,South Carolina,29133,,beautysalon@Treebeardshirt.org
192,itwc-6697-47908,Joyce's Select AAshen  Tax Preparation,972 Prison Avenue,East Brainerd,Tennessee,38142,209-910-7390,
193,xnk-6994-457,Earendil's AAnnalle Dedicate and NPO,842 Dana Path,Newport Beach,California,92809,505-519-8404,
194,2028-cup-317,Heidi's Topic Understand and Collection Agency,1122 Military Station,,Oregon,97365,,Stephanie.Heidi@topiccollectionagency64.biz
195,hltk-312-7788,Oakenshield's IIlta Judge and Oil and Gas Distribution,986 Galbraith Station,Papillion,Nebraska,68761,339-762-9409,
196,ejh-457-70099,Dianna's Assumption Gasp and Cigarette Manufacturing,573 Nottingham Path,Lincoln,Nebraska,69221,401-666-6352,Liv.Dianna@assumptioncigarettemanufacturing.net
197,6828-vsn-695,Orome's Convince Throat Funeral Director,1733 Jensen Trail,Cranston,Rhode Island,2895,319-014-7999,Claudia.Orome@throatfuneraldirector.us
198,ohmp-286-8166,Wormtongue's Tension Gasp and Bail Bonds,579 Sundale Avenue,Urbandale,Iowa,50151,201-074-8115,Katrina.Wormtongue@tensionbailbonds.biz
199,41248-ppi-166,Kimberly's Confess AAshen  Telemarketing,515 Falt Rd,Bixby,Oklahoma,73772,339-661-4335,Lauren.Kimberly@telemarketing.net
200,3541-etcz-122,Jennifer's Farmer Develop and Catering,1740 Wallwork Run,Papillion,Nebraska,68431,859-250-0790,catering@Jenniferfarmer.us
201,orro-3147-8150,Wormtongue's Insert LLuna Beauty Salon,713 Leon Avenue,Valley Station,Kentucky,42765,401-612-2667,beautysalon@Wormtongue.net
202,qie-9454-86639,Isildur's Target LLaw Vocational Rehabilitation,1510 Ferncliff Ridge,Warwick,Rhode Island,2904,702-494-8239,Margaret.Isildur@vocationalrehabilitation.co.uk
203,cpfh-567-90449,Ann's Question LLillith  NPO,510 Kelly Parkway,,North Dakota,58501,480-362-7137,npo@Ann.biz
204,rspsb-8273-854,Ungoliant's Confess Desk Mortgage Company,1394 Michigan Lane,Peoria,Arizona,85006,225-421-0381,Albert.Ungoliant@deskmortgagecompany.biz
205,367-deuce-142,Denise's Disease Receive and Personal Assistant,609 Agines Place,Terrytown,Louisiana,71067,423-986-7604,Dennis.Denise@diseasepersonalassistant.us
206,olmq-414-9620,Sandyman's Swing YYello Vocational Rehabilitation,1716 Pike Station,Morristown,Tennessee,38577,339-823-2656,Nancy.Sandyman@vocationalrehabilitation.co.uk
207,kjtu-562-998,Sandyman's QQuistis G Confess and Nail Salon,657 Plantation Rd,Columbus,Nebraska,68382,,Emma.Sandyman@nailsalon.us
208,lmys-3804-955,Lurtz's MMorrin C Protect and Credit Union,680 Berkley Ave,Ojus,Florida,34712,505-826-8143,Carolina.Lurtz@creditunion.org
209,dceiz-6346-1858,Dorothy's Test Poetry Taxi,565 College Square,,Oregon,97377,405-800-1216,taxi@Dorothypoetry.org
210,1266-hlbmb-2715,Orome's Salad Prevent and Child and Youth Services,492 Vroom Park,Pascagoula,Mississippi,39455,,childandyouthservices@Oromesalad.net
211,95974-ehjp-3688,Mablung's Fancy Hospital Speech and Occupational Therapy,904 Cannon Court,Starkville,Mississippi,39182,513-536-9846,Allison.Mablung@hospitalhospital.us
212,ysneo-475-3272,Brooke's Swing AAnnalle Child and Youth Services,738 Missouri Way,Saint Paul,Minnesota,55590,262-306-6934,childandyouthservices@Brooke.biz
213,gdcq-5140-949,Elwing's Arrest Secretary Sports Agency,1358 Henry Park,La Crosse,Wisconsin,53293,385-714-8726,sportsagency@Elwingsecretary.net
214,960-sue-7513,Huan's Spring LLaw Truck Transportation,1174 Prame Run,Sandy City,Utah,84056,,Matthew.Huan@trucktransportation54.co.uk
215,sec-1230-526,Palantir's AAnnalle Twist and Electrolysis,421 Albert Terrace,Wahiaw+ä-ü,Hawaii,96756,513-595-7828,electrolysis@Palantir.org
216,241-xqosm-3421,Bombur's Confess Flight Home Health Services,649 Cementary Heights,Ramsey,Minnesota,55129,,homehealthservices@Bomburflight.com
217,436-tvcs-6999,Susan's Attach SSybi Athletic Training,773 Essex Circle,Bozeman,Montana,59083,,Eugene.Susan@athletictraining.net
218,lbe-2540-52547,Ulmo's Bedroom Question and Fitness Center,1069 Mackenzie Circle,Florence,South Carolina,29848,339-515-7034,fitnesscenter@Ulmobedroom.org
219,ukfk-1124-837,Ferny's Receive CCalami Locksmith,740 Mcmillan Trail,Papillion,Nebraska,68070,229-328-8272,Beverly.Ferny@locksmith.biz
220,259-pgjr-3464,Audrey's Travel Tennis Security Guard,515 Bateman Boulevard,Pooler,Georgia,30206,423-684-1458,Richard.Audrey@tennissecurityguard.org
221,zbv-1345-967,Iris's Chat YYao Creig Education Child Care Services,1559 Arthur Avenue,Gallatin,Tennessee,38045,339-995-4796,Mary.Iris@educationchildcareservices.net
222,chbr-1584-9823,Ellie's Brainstorm Outcome Emergency Medical Services,844 Emily Crescent,Kearney,Nebraska,69033,405-886-7228,emergencymedicalservices@Ellieoutcome.co.uk
223,fidaq-863-258,The White's SScarlet Benefit and Used Car Sales,856 Rock St,Ridgeland,Mississippi,39194,218-740-5066,Daniel.The White@usedcarsales.org
224,qabt-8035-514,Goldberry's Instruct SSybi Interior Design,1575 Stiver Place,East Concord,New Hampshire,3303,,Daniel.Goldberry@interiordesign.co.uk
225,31906-hma-6614,Randy's Desk Agree and Investing,967 Linwood Path,Shoreview,Minnesota,55785,304-358-7159,
226,izew-371-41996,Gabriel's Target AAsema GED Certification,944 Ambarassdor Trail,,West Virginia,24976,802-314-2902,gedcertification@Gabriel.org
227,svh-3154-1650,Cirdan's TThist Instruct and Equipment Rentals,1135 Kirk Heights,Colchester,Vermont,5051,,equipmentrentals@Cirdan.net
228,abbey-468-38874,Maggot's Desk Collect and Emergency Medical Transportation,1392 Holmes Ridge,,North Dakota,58466,802-159-6763,
229,edm-6644-30831,Sauron's Question Farmer Marketing and Advertising,654 Hanson Heights,Rutland,Vermont,5602,702-944-0005,marketingandadvertising@Sauronfarmer.com
230,cxq-741-92777,The White's GGene Weaken and Auto Dealership,1317 Dona Boulevard,,North Dakota,58216,605-834-7483,
231,8026-tha-4472,Stephanie's TThess Select and Land Surveying,1342 Ederer Ridge,Rapid City,South Dakota,57649,,Jenny.Stephanie@landsurveying.us
232,4077-hmok-421,Evie's RRoshia Chr Swing and Insurance,1700 Dana Trail,,New Mexico,87115,217-573-0882,Jack.Evie@insurance.us
233,buegp-3908-495,Goldberry's Slam Death Crop Production,533 Merlin Place,Homewood,Illinois,60037,405-941-5698,April.Goldberry@deathcropproduction.biz
234,5670-rcx-130,Jade's ZZillah Test and Private Investigator,1093 Hamline Path,Brandon,Mississippi,39476,802-559-6139,
235,bqbu-471-66741,Adrianna's EElza  Test and Tutoring Services,648 Rawson Drive,South Burlington,Vermont,5653,207-743-6538,tutoringservices@Adrianna.co.uk
236,thz-547-421,Wormtongue's Step GGene Private Investigator,539 Greenbriar Drive,West Scarborough,Maine,4490,308-600-1993,privateinvestigator@Wormtongue54.com
237,91382-txk-5613,Jackson's Disease Arrest and Security Guard,1184 Tannehill Place,Mint Hill,North Carolina,28312,307-799-7084,securityguard@Jacksondisease.co.uk
238,secb-727-8155,Frances's Uncle Copy and Telemarketing,1158 Stevy Drive,Laramie,Wyoming,82945,239-248-7254,telemarketing@Francesuncle.co.uk
239,egfj-7051-100,Anarion's Fund Engine GED Certification,1347 Lubring Avenue,Egypt Lake-Leto,Florida,34990,401-222-4175,gedcertification@Anarionengine.biz
240,zde-4978-6833,Anarion's Prevent PPandora  Employment Office,1499 Date Terrace,West Warwick,Rhode Island,2895,203-594-3294,Lexie.Anarion@employmentoffice.net
241,71269-klwh-276,Fili's AAgnes  Chat and Building Inspection,1489 Kingswood Blvd,Wilton,Connecticut,6857,276-024-6750,buildinginspection@Fili.com
242,65777-mzijd-613,Matthew's AAsema Understand and Home Health Services,1744 Elida Street,Fort Hunt,Virginia,24045,,
243,oaien-2813-9321,Janice's Attach RRoshia Chr Used Car Sales,1277 Macedonia Square,,New Mexico,88052,701-375-3357,
244,7072-xgjf-208,Sandyman's AArlin Gasp and Beauty Salon,1130 Beauty Run,Southgate,Michigan,49689,,Ana.Sandyman@beautysalon.biz
245,vms-2878-544,Mandos's Collection Question and Oil and Gas Distribution,1464 Hardy Court,Liberty,Missouri,64179,307-216-7324,oilandgasdistribution@Mandoscollection.com
246,fpjkl-501-70573,Ivy's Copy WWish  Tutoring Services,1146 Clarendon Avenue,Laramie,Wyoming,82430,303-311-7384,Sandra.Ivy@tutoringservices94.biz
247,8148-pcrri-3268,Oakenshield's Chat Bedroom Fitness Center,959 Helene Path,Littleton,Colorado,81428,207-404-7846,
248,6911-mtsij-3913,Ancalagon's AAsema Twist and Insurance,796 Wise Circle,Portland,Maine,4762,,Joy.Ancalagon@insurance.org
249,4930-oapph-6344,Abby's Profession Hurry and Education Child Care Services,1336 Duvall Rd,,North Dakota,58787,303-183-6510,Carolina.Abby@professioneducationchildcareservices.us
250,ctci-153-7095,April's Praise GGail Pa Real Estate Agency,1634 Alexis Trail,Cimarron Hills,Colorado,81290,406-234-8076,realestateagency@Aprilestate.biz
251,shw-434-1686,Ecthelion's Chat RRoshia Chr Used Car Sales,1003 Fleming Heights,Woodmere,New York,13736,480-712-6143,Anthony.Ecthelion@usedcarsales.net
252,42842-drf-3660,Adam's AArlin Prevent and Fitness Center,989 Penney Ln,Sun City,Arizona,86303,,Gary.Adam@fitnesscenter68.biz
253,rav-386-29101,Legolas's Judge Farmer Education Child Care Services,1060 Sheridan Blvd,Suitland,Maryland,21404,513-701-8709,Joyce.Legolas@farmereducationchildcareservices.co.uk
254,922-svz-307,Sulimo's SSable  Improve and Personal Assistant,590 Superior Road,Eagan,Minnesota,55345,480-066-3855,
255,rsaxi-373-2275,Ivy's GGail Pa Instruct and Tanning Salon,1405 Mailey Ln,Anthem,Arizona,85326,206-863-8662,tanningsalon@Ivy.org
256,937-bhiq-4896,Proudfoot's Improve Entertainment Publishing Services,566 London Blvd,Federal Way,Washington,98295,505-870-7720,publishingservices@Proudfootentertainment.org
257,zze-651-32451,Smeagol's Charity Strengthen and Residential Care Facility,1627 Depot Boulevard,,Oregon,97239,304-279-4184,Tina.Smeagol@charityresidentialcarefacility.co.uk
258,9241-xkg-3500,Lucy's Quote LLuce Naxx Private Investigator,1570 Commissioner Ave,,West Virginia,26147,808-316-4606,Niki.Lucy@privateinvestigator.biz
259,2841-pda-361,Heidi's Fund WWill Funeral Director,459 Hawkes Drive,Hilo,Hawaii,96707,201-563-6899,
260,9379-bfm-6338,Smeagol's Skill Instruct and Car Rental,1056 Frazeysburg Boulevard,Tahlequah,Oklahoma,73146,205-973-7928,Oliver.Smeagol@skillcarrental.org
261,70381-sfews-471,Pollando's MMorrin C Look and Chiropractic Office,1739 Hinman Path,Florence,Alabama,35979,316-713-1042,
262,szvj-8588-63040,Erestor's Step WWeiss M Sports Agency,705 Sevall Road,Shawnee,Kansas,66540,406-899-6947,Steven.Erestor@sportsagency.co.uk
263,856-curi-9306,Kili's Spring MMax M Grocery,917 Sunray Trail,Niagara Falls,New York,13062,,grocery@Kili.com
264,459-ibtep-7339,Elendil's Instruct Charity Personal Assistant,423 Mcfarland Crescent,Pittsburgh,Pennsylvania,15069,803-874-7420,Daniel.Elendil@charitypersonalassistant.biz
265,jjrwh-5732-7922,Turin's Chat Information Food and Hospitality,1160 Cornell Park,Anderson,South Carolina,29125,217-235-3111,foodandhospitality@Turininformation.co.uk
266,ttr-935-95812,Melian's LLaw Chat and Home Health Services,1575 Wedgewood Terrace,Geneva,Illinois,61334,480-644-3850,homehealthservices@Melian.net
267,rccqj-736-852,Feanor's EEternity Confess and Mental Health Services,419 Bailey Ridge,Surprise,Arizona,86441,505-922-1105,
268,31862-bgila-3389,Damrod's Praise Replacement Massage Therapy,755 Virginia Rd,,Oregon,97111,423-142-9450,massagetherapy@Damrodreplacement.biz
269,65412-exaif-515,Sharon's Look Flight Veterinary Medicine,797 Crow Avenue,Springfield,Tennessee,37111,201-390-7082,Justin.Sharon@flightveterinarymedicine.co.uk
270,wojfi-5623-39819,Illuvatar's MMargo Target and Credit Union,876 Sofin Way,Enid,Oklahoma,74071,229-999-0469,
271,had-6843-6070,Nesa's Gasp Charity Wholesale Drug Distribution,1408 Celina Drv,Rome,Georgia,31771,458-707-1321,Michelle.Nesa@charitywholesaledrugdistribution.us
272,335-ezfss-3036,Baggins's Weaken Engine Education Child Care Services,1613 Olive Station,Oakville,Missouri,65446,907-006-7263,Erik.Baggins@engineeducationchildcareservices.us
273,7650-drw-916,Stormcrow's Travel WWill Fishing and Hunting,1201 Clearey Drive,Badger,Alaska,99517,203-786-8077,
274,ltswp-367-5269,Daniel's Information Insert and Massage Therapy,1653 Sudbury Place,Branford,Connecticut,6896,,massagetherapy@Danielinformation.us
275,xyoo-647-408,Angelica's Beer Select and Radiology,1686 Pfeiffer Lane,West Albany,New York,14607,316-668-3038,radiology@Angelicabeer57.biz
276,15331-jfa-5009,Katie's Entertainment Collect and Child and Youth Services,1013 Ridgeland Circle,Olathe,Kansas,66087,262-865-1152,
277,liqx-5296-944,Aldarion's Prevent ZZillah Mortgage Company,967 Cowden Lane,South Milwaukee,Wisconsin,53259,,Wendy.Aldarion@mortgagecompany30.co.uk
278,apj-965-384,Ingwe's Desk Receive and Physical Therapy,1360 Rehl Heights,Clarksville,Indiana,46311,217-574-3989,physicaltherapy@Ingwedesk.com
279,pzmu-5449-38563,Lydia's Throat Arrest and Medical Office,876 Narrows Station,Harvey,Illinois,60407,,Anna.Lydia@throatmedicaloffice.biz
280,4694-wop-389,Daniel's AAshen  Pay and Lawn care Services,696 Monroe Drv,Fort Hunt,Virginia,23665,,lawncareservices@Daniel.org
281,kmkjc-858-16934,Betty's Strengthen LLillith  Investing,1317 Spruce Court,North Providence,Rhode Island,2823,,investing@Betty.us
282,apud-863-24178,Stormcrow's AAdrien Know and Wholesale Drug Distribution,1416 Lawson Boulevard,Mesquite,Nevada,89826,401-201-9032,wholesaledrugdistribution@Stormcrow.org
283,71493-tyzy-4616,Eva's Fancy WWish  Repair and Maintenance,1705 Bonifield Road,Bristol,Rhode Island,2908,480-949-3736,Zelda.Eva@repairandmaintenance.com
284,79064-nbgw-544,Charles's Precede Bath Travel Agency,555 Tupedo Terrace,Marana,Arizona,85741,276-288-1327,travelagency@Charlesbath.com
285,193-aqq-6961,Sharon's Slam Wood Travel Agency,1462 Mcclain Drive,Fort Hunt,Virginia,23670,803-968-4623,travelagency@Sharonwood.co.uk
286,sdsaw-697-924,Mandos's Look QQuistis G Bail Bonds,1612 Smithfield Heights,Greenville,South Carolina,29709,605-792-3500,
287,lxi-6322-78684,Jordan's Confess Media Hospital,1701 Front Boulevard,Brookings,South Dakota,57552,,hospital@Jordanmedia.com
288,265-ceqxd-9643,Olorin's Store Response Grocery,1012 Wheatland Crescent,Pacific Grove,California,94087,240-405-0083,Toki.Olorin@responsegrocery69.com
289,pgpzi-393-33426,Ronald's Improve Reputation Telemarketing,1455 Grandview Drive,Butte-Silver Bow (Balance),Montana,59337,401-973-9103,
290,qzndd-9492-63672,Stormcrow's Receive MMemory Ad Massage Therapy,1567 Hicks Place,North Kingstown,Rhode Island,2880,339-878-0532,massagetherapy@Stormcrow.org
291,65266-pww-425,Brandybuck's Improve MMargo Storage,775 Garner Drive,Lincoln,Nebraska,69127,319-216-8986,storage@Brandybuck.org
292,ygj-124-794,Elladan's Twist MMorrin C Tutoring Services,818 Hamburg Square,Des Moines,Iowa,51024,252-450-6607,
293,8645-tfn-207,Lilly's Benefit Philosophy Pharmacy,1177 Pierce Street,Burlington,Massachusetts,1718,401-476-6623,
294,1021-ibb-348,Kyle's Chat Reputation Lawn care Services,718 South Street,Coventry,Rhode Island,2860,208-611-4876,lawncareservices@Kylereputation.us
295,zsdwy-987-675,Elros's Hospital Understand and GED Certification,1404 Wortman Park,Idaho Falls,Idaho,83349,308-040-1084,gedcertification@Elroshospital.biz
296,fqwd-900-8617,Erestor's Chat TTwilight L Racetrack,1232 Edna Lane,Huntersville,North Carolina,28136,219-760-0115,
297,69703-ckqpl-863,Mithrandir's TThess Precede and Event Planning,925 Madison Heights,South Bend,Indiana,47041,405-842-9991,Richard.Mithrandir@eventplanning.com
298,915-tgr-5217,Melody's Quote Secretary Electrolysis,1778 Manning Blvd,Ridgeland,Mississippi,38617,203-811-1305,
299,yljv-5956-340,Bofur's Requirement Fancy and Veterinary Medicine,480 Arcadia Court,West Hartford,Connecticut,6067,,Jeffrey.Bofur@requirementveterinarymedicine.biz
300,915-egbfc-601,Denise's Response Copy and Property Management,1155 Zanesville Crescent,Burleson,Texas,77882,207-063-0133,propertymanagement@Deniseresponse.org
301,swd-553-86564,Janet's LLillith  Understand and Publishing Services,1332 Patch Avenue,Augusta,Maine,4216,907-260-8182,
302,6263-jwb-9298,Thranduil's Swing GGail Pa Record Business,1387 Stansberry Circle,Fairbanks,Alaska,99524,859-728-6310,
303,960-pvlha-4399,Legolas's Strengthen Weakness Janitorial and Cleaning Services,938 Nor-Bixbey Parkway,Florence,Kentucky,41076,,janitorialandcleaningservices@Legolasweakness.com
304,2945-blmtg-875,Gollum's Arrest GGene Cigarette Manufacturing,791 Armco Rd,Mustang,Oklahoma,73150,,Mark.Gollum@cigarettemanufacturing.com
305,27643-ljlyb-9755,Denethor's EElaine Sha Question and Pharmacy,1708 Keystone Crescent,Carbondale,Illinois,62660,,Alexander.Denethor@pharmacy.biz
306,6928-iezg-3460,Maeglin's Understand MMemory Ad Grocery,1308 Hardy Avenue,Eagle River,Alaska,99546,479-712-5808,grocery@Maeglin.co.uk
307,94168-psqas-8673,Mandos's LLillith  Weaken and Residential Care Facility,938 Orchard Lane,Rogers,Arkansas,72835,302-341-9881,Patricia.Mandos@residentialcarefacility.com
308,cpwt-600-272,Bombur's IIlta Understand and Telemarketing,1646 Lark Crescent,Newark,Delaware,19892,,telemarketing@Bombur.net
309,umdy-464-719,Sara's Benefit Hospital Building Inspection,958 Lander Way,Whitney,Nevada,89825,,buildinginspection@Sarahospital.co.uk
310,738-rmgi-3130,Alexander's Salad Travel and Bakery,1800 Kahler Trail,Murray,Utah,84533,231-623-9298,
311,sbyt-7518-901,Donald's Know HHazelmer Security System Services,977 Merlin Street,Pahrump,Nevada,89149,212-915-9032,securitysystemservices@Donald.com
312,emqmh-191-652,Gildor's Exceed Artisan Photography,1154 Dillon Station,South Laurel,Maryland,21524,385-971-6102,photography@Gildorartisan.com
313,fbam-8021-67444,Butterbur's Collection Quote and Construction,694 Wetsell Avenue,Payson,Utah,84758,802-839-5451,Kate.Butterbur@collectionconstruction.biz
314,fvwpi-9568-4143,Celebrimbor's Test ZZayne Cr Barber Shop,704 Stiver Trail,South Burlington,Vermont,5701,423-520-2115,barbershop@Celebrimbor.com
315,726-dpqao-8330,Brandybuck's Pay Skill Wholesale Drug Distribution,575 Sugartree Ridge,Johnson City,Tennessee,38002,225-297-8020,Judy.Brandybuck@skillwholesaledrugdistribution.biz
316,1534-dvof-147,Audrey's SSybi Pay and Concrete Manufacturing,1576 Harmon Square,Slidell,Louisiana,70601,201-794-0868,concretemanufacturing@Audrey.co.uk
317,1799-aaewa-2090,Adrianna's LLuna Step and Hotels,1250 Normandy Trail,Chickasha,Oklahoma,74842,208-507-5012,hotels@Adrianna93.com
318,1170-ock-385,Rose's Chat EElaine Sha Agriculture & Forestry and Wildlife Extermination and Pest Control,1108 Fairmont Drive,Lewiston,Idaho,83203,405-144-0860,Mason.Rose@agriculture&forestryandwildlifeexterminationandpestcontrol.us
319,kyd-5763-11375,Sydney's Chat Shirt Fishing and Hunting,801 Larry Circle,Madison,Mississippi,39645,808-106-5477,Rose.Sydney@shirtfishingandhunting.co.uk
320,qvwux-3813-89074,Willow's AArlin Precede and Chiropractic Office,1288 Cecil Avenue,Schofield Barracks,Hawaii,96780,907-549-1210,Sophie.Willow@chiropracticoffice.us
321,63436-ymmz-1339,Huan's Pay MMax M Massage and Day Spa,1667 Merlin Street,Eagle River,Alaska,99574,605-750-5275,
322,6395-lkrj-622,Vivianna's Target AArc Br Concrete Manufacturing,1143 Fairmount Court,Watertown,South Dakota,57325,,concretemanufacturing@Vivianna.org
323,vkf-9748-42365,Gamgee's GGene Decorate and Child and Youth Services,876 Stout Ln,Haslett,Michigan,49250,702-427-4471,Helen.Gamgee@childandyouthservices.net
324,vryq-2537-4091,Glorfindel's SSeraphim  Exceed and Casino,837 Chapman Path,,North Dakota,58201,319-840-4938,Theresa.Glorfindel@casino.org
325,2991-bjdv-7477,Denethor's Collect GGene Vocational School,1608 Rice Heights,Burlington,Iowa,50037,,vocationalschool@Denethor.com
326,lhkl-836-67086,Bolger's Bedroom Strengthen and Lawn care Services,445 Coshocton Ave,Sunrise Manor,Nevada,89713,423-321-7801,Oliver.Bolger@bedroomlawncareservices.net
327,ncm-6326-903,Autumn's LLuna Confess and Storage,1347 Colburn Drv,Maryville,Tennessee,37162,228-214-1409,
328,10744-wnj-2945,Shelob's Dedicate WWill Sports Agency,1726 Blue St,Pleasantville,New Jersey,8853,212-127-5593,Juliet.Shelob@sportsagency.biz
329,980-ush-4506,Celeborn's Quote PPandora  Bank,1661 Norris Ridge,Rosedale,Maryland,21278,303-056-5737,
330,hyr-575-62354,Bolger's YYello Release and Vocational Rehabilitation,1393 Pleasantville Circle,Englewood,Colorado,81223,,vocationalrehabilitation@Bolger.us
331,25318-kgyc-3627,Toki's Slam YYello Plumbing,1735 Lambert Drive,Westerly,Rhode Island,2908,406-214-2551,Angie.Toki@plumbing.com
332,6262-gjb-5658,Nienna's ZZima  Instruct and Lawn care Services,1693 Gomber Park,Brighton,New York,13411,201-989-1365,
333,95884-zdort-1795,Delilah's Select Opportunity Tax Preparation,1762 Thompson Crescent,McAlester,Oklahoma,74352,802-514-4745,Bobby.Delilah@opportunitytaxpreparation7.us
334,1350-pbxz-9268,Charles's AAsema Decorate and Technology Services,1200 Kahler Drv,Colchester,Vermont,5653,,
335,2919-qdh-8306,Maggot's GGail Pa Question and Tax Preparation,1441 Mckaig Path,Security-Widefield,Colorado,81240,314-811-2164,
336,hmzc-6461-53170,Elendil's Prevent Collection Sports Agency,1072 Pershing Place,,New Mexico,87531,225-509-1329,Harold.Elendil@collectionsportsagency.org
337,8529-jrhpt-3340,Annatar's EEldia M Praise and Drug Screening,787 Crock Blvd,Terrytown,Louisiana,70898,405-076-2731,Sophie.Annatar@drugscreening.biz
338,49107-rcu-976,Sauruman's Climate Arrest and Fishing and Hunting,1253 Babbs Boulevard,Southaven,Mississippi,39730,,fishingandhunting@Saurumanclimate.org
339,icor-815-61801,Averie's EElaine Sha Spring and Vocational School,504 Lectric Lane,Emporia,Kansas,66078,228-976-1688,vocationalschool@Averie.co.uk
340,75418-wbkc-840,Elrond's Protect RRoshia Chr Publishing Services,1521 Limestone Run,South Orange,New Jersey,8332,209-363-9388,publishingservices@Elrond.org
341,924-sfjb-564,Erestor's Reputation Spring and Vocational Rehabilitation,983 Woolper Path,Shafter,California,95020,339-756-8933,
342,923-pbv-3154,Halbarad's TThist Slam and Mental Health Services,1004 Gayla Crescent,Kearney,Nebraska,68038,215-682-4938,mentalhealthservices@Halbarad.org
343,mlxk-311-653,Alcarin's Idea Chat and Hospital,505 Hall Way,Hermitage,Pennsylvania,17018,304-845-5934,
344,91312-heir-7414,Marilyn's Quote EElphina Technical School,1337 Warwick Drive,,West Virginia,24857,304-816-4135,
345,69596-raq-7251,Makenzie's JJinx Agree and Florist,1484 Pfeifer Trail,,West Virginia,25152,,Kenneth.Makenzie@florist.us
346,832-tbs-455,Celebrimbor's EElaine Sha Chat and Trade School,1166 Doru Heights,Wilton,Connecticut,6282,401-155-8897,
347,575-wif-634,Sauron's Store Bedroom Speech and Occupational Therapy,449 Turner Court,Central Falls,Rhode Island,2887,,Ana.Sauron@bedroomspeechandoccupationaltherapy.com
348,gsfdr-457-130,Bethany's Chat AArlin Storage,1286 Rock Run,Tooele,Utah,84722,385-444-5885,Albert.Bethany@storage.org
349,igqr-258-7830,Kenneth's Develop ZZayne Cr Repair and Maintenance,1271 Auburn Parkway,American Fork,Utah,84751,229-722-6445,Savannah.Kenneth@repairandmaintenance.org
350,ecxn-913-927,Yvette's Opportunity Insert and Mental Health Services,1785 Johnstown Heights,Douglasville,Georgia,31082,,Jewel.Yvette@opportunitymentalhealthservices.com
351,dsc-8897-118,Sandra's Form WWish  NPO,476 Broadvue Station,Saint Andrews,South Carolina,29512,401-003-7814,Noah.Sandra@npo.com
352,9137-tzmg-699,Kathryn's Permission Strengthen and Chiropractic Office,720 Toni Street,Woonsocket,Rhode Island,2833,207-763-9078,chiropracticoffice@Kathrynpermission.biz
353,1408-lmk-620,Thingol's Replacement Question and Massage and Day Spa,1439 Palamino Rd,West Scarborough,Maine,4973,803-999-5589,
354,315-sqz-138,Jeremy's Confess AAsema Contracting,1208 Dunham Drive,Mauldin,South Carolina,29824,605-054-6067,Ronald.Jeremy@contracting.co.uk
355,gkb-9539-31560,Imrahil's Bedroom Step and Alcohol and Tobacco Sales,1017 Middle Path,Rapid City,South Dakota,57427,262-741-1132,Kai.Imrahil@bedroomalcoholandtobaccosales.com
356,lddaw-904-9389,Josie's YYello Suffer and Optometry,974 Sofin Run,Racine,Wisconsin,53206,218-845-9434,
357,3427-grzk-462,Steven's AAyda V Protect and Bank,419 Stillmeadow Ave,Laconia,New Hampshire,3853,802-217-7140,
358,rienn-8228-7076,Amrod's Copy TThess Livestock and Slaughtery,1183 Hewitt Circle,Rutland,Vermont,5345,302-648-0828,livestockandslaughtery@Amrod.com
359,gsar-2972-63242,Beregond's Diamond Improve and Oil and Gas Extraction and Production,1335 Tremont Place,Wilmington,Delaware,19955,209-142-6085,oilandgasextractionandproduction@Beregonddiamond.com
360,61095-aghu-802,Stormcrow's Receive AAshen  Tutoring Services,1705 Rider Run,Hayward,California,91523,240-558-6447,Carla.Stormcrow@tutoringservices.us
361,aaecs-168-557,Damrod's WWeiss M Improve and Real Estate Agency,1201 Marsha Park,Butte,Montana,59855,385-346-1079,realestateagency@Damrodestate.biz
362,lejam-176-80896,Christina's Praise AAyda V Landscape Services,1628 Tranquility Way,American Fork,Utah,84325,303-743-3623,Peter.Christina@landscapeservices.us
363,841-qit-6088,Tuor's PPandora  Instruct and Specialty Seafood,777 Burbank Rd,Ca+â-¦on City,Colorado,81010,,
364,6933-gkwf-385,Madison's Replacement Select and Interior Design,1075 Moccasin Court,Culver City,California,95009,,interiordesign@Madisonreplacement.com
365,91738-kzv-5503,Dori's Improve Throat Bank,448 Spratt Ln,Canton,Georgia,30306,808-105-3137,Rachel.Dori@throatbank26.com
366,vwvdr-589-6073,Arwen's Fund Shirt Cash Advances,1268 Philadelphia Lane,Wailuku,Hawaii,96788,206-013-2644,
367,549-mkh-723,Elwing's Praise Secretary Catering,802 Nottinghamshire Parkway,Lakewood,Washington,99027,,Valerie.Elwing@secretarycatering.biz
368,6484-ixgp-8767,Gimli's Strengthen AAsema Funeral Director,542 Sheila Square,Cedar Falls,Iowa,52751,,Paul.Gimli@funeraldirector.co.uk
369,weay-664-33469,Feanor's SScarlet Hurry and Telemarketing,1579 Marion St,Colchester,Vermont,5769,207-250-2228,telemarketing@Feanor.us
370,745-lbmze-867,Melian's TTwilight L Benefit and Catering,890 Benjamin Run,Westbrook,Maine,4686,,catering@Melian.net
371,lxevc-5467-78530,Curufin's Reputation Store and Construction and Utilities,940 Hinman Run,Johnson City,New York,14742,808-791-0380,
372,kmgb-265-7861,Jenny's Reputation Instruct and Oil and Gas Distribution,536 Perdue Circle,Makakilo,Hawaii,96760,,Lilly.Jenny@reputationoilandgasdistribution.biz
373,krufs-641-429,Mablung's NNoirax De Insert and Bank,838 Parry Square,Henderson,Nevada,89028,405-935-2854,
374,24865-nftis-8643,Kathy's Prevent Uncle Embalmer,1023 Blocksom Way,Ridgeland,Mississippi,39150,239-085-7226,
375,410-hwzja-4574,Eomer's GGriffin  Twist and Tax Preparation,450 Denbigh Place,Merritt Island,Florida,33872,231-108-4268,taxpreparation@Eomer.org
376,hxn-449-1579,Galadriel's Target IIlta Dry cleaning and Laundry,1651 Buckingham Drive,Summerlin South,Nevada,89017,308-097-7812,
377,301-xkaa-689,Alatar's Benefit Bath Mortgage Company,1346 Marsha Street,Lenoir,North Carolina,28735,,
378,ipf-8470-8696,Manwe's Insert Artisan Video Production,1408 Arnold Run,Greenwood,Mississippi,39149,339-977-8230,
379,qcu-515-54588,Nori's Pay RRoshia Chr Funeral Director,1040 Sharonwood Street,Lincoln,Nebraska,69022,,Kyle.Nori@funeraldirector.us
380,gnk-161-29988,Jackson's Hospital Fancy and Funeral Director,605 Lincoln St,Newark,Delaware,19945,228-734-5187,Isaiah.Jackson@hospitalhospital.co.uk
381,hrb-440-3700,Gimli's Revenue Know and Property Management,1077 Juanita Crescent,Toms River,New Jersey,7662,209-348-2971,propertymanagement@Gimlirevenue.net
382,bhg-9352-5240,Walter's Understand CCalami Marketing and Advertising,1667 Jessamine Rd,Moreno Valley,California,90703,209-346-5026,Freya.Walter@marketingandadvertising.us
383,oxqht-7328-8826,Fingolfin's Improve Disease Veterinary Medicine,1720 Lock Place,Walnut Park,California,96117,605-423-1797,Brittany.Fingolfin@diseaseveterinarymedicine.org
384,4864-ana-6132,Jaime's Instruct AAshen  Nail Salon,1142 Bolton Crescent,Rapid City,South Dakota,57466,,
385,jjsq-154-2330,Jackson's EElza  Slam and Catering,1685 Juniper Ridge,Lafayette,Louisiana,71477,,Heather.Jackson@catering.co.uk
386,yuffh-483-923,Goldberry's Swing Media Massage Therapy,1376 Holliday Trail,Union City,Georgia,31402,480-042-5221,Kelsey.Goldberry@mediamassagetherapy.us
387,9311-leazo-981,Bombadil's Wood Collect and Mortgage Company,1179 Newport Boulevard,Sahuarita,Arizona,85066,,Janice.Bombadil@woodmortgagecompany.org
388,9731-nwlgp-1046,Bifur's Precede SSybi Insurance,1286 Harmony Drv,Grand Island,Nebraska,68056,307-428-4018,Terry.Bifur@insurance55.net
389,2480-qeh-5542,Nori's Protect Bedroom Interior Design,698 Carver Ridge,Sheridan,Wyoming,83115,,Bailey.Nori@bedroominteriordesign.com
390,ards-652-6521,Elwing's Select Desk Construction and Utilities,1562 Brick Rd,,West Virginia,25969,513-749-3397,Stephen.Elwing@deskconstructionandutilities0.com
391,klel-377-229,Shelob's Uncle Fund and Hotels,1371 Stansberry St,Ham Lake,Minnesota,56536,,
392,hyjbm-457-5056,Robert's Brainstorm SSeraphim  Sports Agency,1452 Kirk St,Hastings,Nebraska,68711,,
393,qbxlr-8194-79392,Stephen's Farmer Target and Tanning Salon,1228 Purvis Heights,Wailuku,Hawaii,96754,240-347-9017,tanningsalon@Stephenfarmer.co.uk
394,84893-iic-8452,Jerry's PPandora  Attach and HVAC Repair,464 Christopher Ave,Great Falls,Montana,59007,,Donna.Jerry@hvacrepair.org
395,xyzd-299-73436,Nazgul's ZZayne Cr Spring and Construction,903 Danville Ave,Norfolk,Nebraska,69360,406-802-3892,
396,cdg-9904-83073,Jacqueline's Pay Reputation Bank,867 Deer Square,Farmingville,New York,10576,702-987-5525,
397,qulu-783-677,Shelob's MMax M Pay and Cemetery,905 Wisteria Path,,North Dakota,58441,339-056-2723,cemetery@Shelob.com
398,nhgn-4663-533,Karen's Decorate LLuce Naxx Car Rental,993 Eastview Ln,Grand Island,Nebraska,68777,316-592-0484,
399,45245-rrzmg-2556,Radagast's Fancy Reputation Security Guard,708 Pleasantville Trail,Topeka,Kansas,66840,803-385-5244,securityguard@Radagastreputation.org
400,10973-thzt-7740,Jason's SScarlet Understand and Medical Office,939 King Boulevard,Hanahan,South Carolina,29720,217-043-5579,medicaloffice@Jason.biz
401,81646-tllug-5539,Bombur's Shirt Exceed and Radiology,1220 Homeless Ridge,Highland Park,Illinois,62567,219-668-5418,Kelsey.Bombur@shirtradiology.org
402,nazaf-287-72810,Lydia's Weaken AArc Br Tax Preparation,1554 Garfield Court,Michigan City,Indiana,47970,702-252-7607,
403,1723-xuwzv-6773,Erin's Insert ZZayne Cr Land Surveying,907 Glenn Ln,,North Dakota,58520,,
404,4428-uom-2110,Thranduil's GGriffin  Agree and Investing,960 Jewett Station,Webster Groves,Missouri,64726,480-089-5104,investing@Thranduil.org
405,469-ghsbh-417,Orome's QQuistis G Collect and Emergency Medical Services,457 Chapman Square,Maricopa,Arizona,85087,808-319-8220,emergencymedicalservices@Orome.com
406,bxno-4612-710,Sandra's Information Store and Agriculture & Forestry and Wildlife Extermination and Pest Control,1723 Solida Drv,Makakilo City,Hawaii,96819,,agriculture&forestryandwildlifeexterminationandpestcontrol@Sandrainformation.net
407,feg-777-62621,The White's Insert Wood Travel Agency,425 Alvin Parkway,City of Milford (balance),Connecticut,6920,210-062-6204,
408,933-yte-580,Harold's AAgnes  Twist and Florist,837 Dixie Place,Fort Hood,Texas,79907,,
409,arm-661-3672,Gildor's YYello Improve and Real Estate Agency,1802 Beechmont Heights,Thousand Oaks,California,92863,,realestateagency@Gildorestate.net
410,sae-706-2961,Jack's RRoshia Chr Twist and Specialty Fruit,1599 Durban Court,Menomonie,Wisconsin,54936,603-821-6473,Jewel.Jack@specialtyfruit.us
411,6510-wptd-6523,Wayne's Select SScarlet Florist,531 Cleve Ln,Ashtabula,Ohio,45482,513-526-3331,Ophelia.Wayne@florist.com
412,9148-srjon-363,Anthony's Travel QQuistis G Cash Advances,1304 Orders Boulevard,Edina,Minnesota,55468,603-728-5581,cashadvances@Anthony85.co.uk
413,43027-tlv-5883,Erik's Improve SSybi Interior Design,486 Gratiot-Newark Rd,Steubenville,Ohio,45739,859-705-5151,interiordesign@Erik40.biz
414,rtzru-688-1467,Eru's Strengthen WWeiss M HVAC Repair,748 Public Drv,Covington,Kentucky,40118,,Sage.Eru@hvacrepair.co.uk
415,rft-980-67007,Proudfoot's Benefit Disease Towing,1581 Inwood Ln,South Burlington,Vermont,5053,239-380-6174,towing@Proudfootdisease.net
416,501-kym-441,Russell's Select Reality Casino,656 Cranfield Ave,Miami Lakes,Florida,33597,225-444-2346,Lilly.Russell@realitycasino67.org
417,jic-9321-6419,Alatar's Select TTwilight L Tax Preparation,992 Sheandoah Square,Gretna,Louisiana,70895,316-714-3974,
418,8511-qdihy-2650,Linda's Weaken WWeiss M Mental Health Services,573 Catalpa Heights,Leavenworth,Kansas,67547,262-516-4281,Lauren.Linda@mentalhealthservices.co.uk
419,jnkjb-7158-6410,Gildor's Decorate Permission Tanning Salon,1664 Rosewood Ridge,Beloit,Wisconsin,53109,201-982-5043,tanningsalon@Gildorpermission.com
420,72989-lwuy-9891,Valaquenta's Fund PPandora  Residential Care Facility,831 Jefferson Boulevard,Stillwater,Oklahoma,73105,206-059-4718,residentialcarefacility@Valaquenta.com
421,298-zrpn-368,Shirley's Exceed Charity Hotels,560 Garrell Lane,Federal Way,Washington,98505,,hotels@Shirleycharity.biz
422,ywxrm-7499-21142,Yavanna's Improve MMemory Ad Radiology,944 Sundale Road,Wilson,North Carolina,27892,210-740-1941,radiology@Yavanna49.com
423,2332-dbf-4908,Theoden's Weakness Precede and Food and Hospitality,1046 Eldwood Road,Alamo,Texas,75637,,foodandhospitality@Theodenweakness.net
424,50966-rmxz-2886,Alyssa's Attach EElaine Sha Concrete Manufacturing,1423 Brandywine Trail,Anchorage,Alaska,99824,201-152-1419,concretemanufacturing@Alyssa.org
425,mztk-251-376,Dale's AArlin Fund and Travel Agency,1075 Nora Station,Oklahoma City,Oklahoma,73108,225-074-7686,Jonathan.Dale@travelagency.org
426,mlqvj-9202-7776,Shadowfax's Media Twist and Cemetery,1452 Roemer Drive,Chalmette,Louisiana,70064,603-985-1045,cemetery@Shadowfaxmedia.org
427,dcj-4003-29684,Ulmo's People Quote and Cosmetology School,1215 Orton Street,Springboro,Ohio,44633,240-559-7788,Lara.Ulmo@peoplecosmetologyschool.us
428,tnsbf-3998-8441,Annabelle's Gasp SSybi Publishing Services,1111 Clay Terrace,Helena,Montana,59714,605-985-4293,Melody.Annabelle@publishingservices.biz
429,mihc-4256-89099,Kementari's Arrest Diamond Tutoring Services,1629 Putnam Blvd,Mitchell,South Dakota,57551,218-229-0629,
430,kszb-6293-700,Bregolas's Philosophy Insert and Specialty Meat,1772 Ellis Path,Salem,New Hampshire,3282,,specialtymeat@Bregolasphilosophy.com
431,8761-dwu-4368,Rose's Fancy Charity Event Planning,476 Hunter Drive,North Little Rock,Arkansas,72703,859-300-9995,
432,13895-tqr-721,Ellie's Brainstorm Engine Taxi,512 Jenkins Path,Lexington-Fayette,Kentucky,40150,209-902-8824,Logan.Ellie@enginetaxi.com
433,6509-phy-7807,Ulmo's Engine Twist and Bank,1701 Smithwood Lane,Napa,California,92117,302-581-6606,bank@Ulmoengine.co.uk
434,ybl-366-27687,Betty's Collect Tennis Residential Care Facility,1175 Ryan Lane,Wilmington,Delaware,19894,,
435,94297-luf-681,Baggins's Protect HHazelmer Alcohol and Tobacco Sales,1151 Schneider Ridge,Fort Hunt,Virginia,23140,308-805-8643,Crystal.Baggins@alcoholandtobaccosales32.co.uk
436,10871-rga-970,Gothmog's Profession Target and Storage,788 Hendershot Boulevard,Indian Trail,North Carolina,28775,252-576-3460,storage@Gothmogprofession.us
437,gygfj-874-83248,Beren's Praise AAyda V Cigarette Manufacturing,809 Arch Parkway,Palmer,Massachusetts,1930,302-906-8386,cigarettemanufacturing@Beren.us
438,akg-5912-53323,Palantir's MMorrin C Develop and Photography,1697 Idaho Blvd,Newark,Delaware,19964,316-483-7026,Veronica.Palantir@photography.co.uk
439,9753-nwdvg-1995,Megan's Suffer CCalami Personal Assistant,1137 Owens Blvd,Pittsburg,Kansas,67621,385-374-6462,
440,665-hrvzs-4961,Emily's AAgnes  Exceed and Substance Abuse Services,1506 Wells Avenue,East Millcreek,Utah,84540,907-050-9469,substanceabuseservices@Emily.com
441,mdd-503-49589,Bombur's NNoirax De Agree and Building Inspection,494 Federal Circle,Badger,Alaska,99821,401-504-9437,buildinginspection@Bombur.biz
442,wgp-726-895,Clarissa's Chat MMemory Ad Construction and Utilities,1712 Edwards Place,Smithfield,Rhode Island,2901,423-852-5762,Samantha.Clarissa@constructionandutilities82.org
443,bnv-6624-91470,Nienna's Slam Charity Car Rental,1249 Freedom Drv,Tullahoma,Tennessee,37930,304-642-3322,Wayne.Nienna@charitycarrental.biz
444,hica-5582-490,Brianna's EEternity Receive and Cosmetology School,1614 Goddard Place,,West Virginia,24854,385-312-7131,Alexander.Brianna@cosmetologyschool6.us
445,aifs-6191-679,Illuvatar's Precede People Lawn care Services,1220 Raintree Avenue,Salt Lake City,Utah,84631,480-409-7393,lawncareservices@Illuvatarpeople.biz
446,208-luhs-6106,Mark's Develop Profession Concrete Manufacturing,1033 Martin Court,Prescott Valley,Arizona,86535,,
447,aftt-4532-185,Thranduil's Climate Attach and Bakery,1581 Stansberry Way,Wahiaw+ä-ü,Hawaii,96788,302-280-4103,bakery@Thranduilclimate.net
448,ocy-9535-940,Bifur's EElza  Step and Speech and Occupational Therapy,1335 Lashley Ln,Newark,Delaware,19809,,speechandoccupationaltherapy@Bifur.net
449,606-wfs-600,Sandra's Information Develop and Emergency Medical Services,1169 Grieves Path,Salisbury,North Carolina,27233,307-248-8070,emergencymedicalservices@Sandrainformation.biz
450,gmvt-3505-490,Gamgee's ZZillah Prevent and Vocational Rehabilitation,1344 Market Street,Gillette,Wyoming,82214,,vocationalrehabilitation@Gamgee27.org
451,geo-9507-133,Anarion's Select Death Auditing,791 Browns Court,Wilmington,Delaware,19961,405-542-6294,
452,4472-amm-517,Thingol's Quote AArlin Accounting,960 Stiers Run,Gautier,Mississippi,38669,201-500-6808,
453,unnxz-2637-90599,Faramir's Desk Suffer and Repair and Maintenance,468 Potts Street,Mustang,Oklahoma,74425,228-056-5820,repairandmaintenance@Faramirdesk.co.uk
454,pjdgo-876-31309,Shagrat's WWill Decorate and Auto Dealership,1556 Merriam Terrace,West Milford,New Jersey,8857,209-786-7712,autodealership@Shagrat.biz
455,hqr-3515-5835,Shirley's Quote GGriffin  Used Car Sales,572 Navy Avenue,Ukiah,California,94294,316-655-5053,usedcarsales@Shirley.net
456,zyw-9737-768,Crystal's Bedroom Collect and Electrolysis,1161 Bellwood Ave,Hays,Kansas,66873,208-228-0432,electrolysis@Crystalbedroom.net
457,52543-kkhq-9386,Megan's TTwilight L Form and Specialty Seafood,1451 Washington Avenue,Meridian,Idaho,83847,203-530-1161,specialtyseafood@Megan.biz
458,281-acoi-3488,Angrod's LLillith  Slam and Agriculture & Forestry and Wildlife Extermination and Pest Control,1803 Pierce Drive,Wethersfield,Connecticut,6443,228-152-7111,
459,ccjc-2633-98419,Nicole's EElaine Sha Arrest and Oil and Gas Distribution,613 Harbor Path,Carteret,New Jersey,8823,231-896-0463,oilandgasdistribution@Nicole.co.uk
460,368-htv-4553,Aldarion's Spring AAsema Collection Agency,708 Palomino Rd,Spanish Springs,Nevada,89521,276-046-5179,
461,dqaxb-364-28002,Lurtz's Decorate GGail Pa Record Business,1621 Carpenter Street,Fort Hunt,Virginia,24319,206-392-6384,Christian.Lurtz@recordbusiness.co.uk
462,81672-ybw-498,Joy's Fancy Information Mental Health Services,998 Ellen Lane,Fairwood,Washington,98263,303-491-7473,mentalhealthservices@Joyinformation.us
463,7727-ewtd-2404,Ulmo's Agree TThess Property Management,1681 Lent Street,Northglenn,Colorado,80161,,
464,63945-ocy-492,Felagund's Beer Instruct and Real Estate Agency,794 Beam Place,,North Dakota,58362,907-477-7119,Katie.Felagund@beerrealestateagency.biz
465,gftj-973-15972,Victoria's Pay Assumption Cosmetology School,1578 Venture Avenue,Fairbanks,Alaska,99723,405-052-2241,Amber.Victoria@assumptioncosmetologyschool.co.uk
466,5996-nwm-3903,Pamela's Test GGriffin  Technical School,444 Circleville Crescent,Columbus,Mississippi,39754,,Lucy.Pamela@technicalschool.net
467,9362-beg-887,Mitch's Twist Profession Photography,1781 Bolen St,Woodlawn,Maryland,21093,217-236-2596,
468,90223-lihe-591,Claudia's Replacement Pay and Auto Dealership,1015 Darla Ridge,Quincy,Illinois,62673,231-113-0530,Daniella.Claudia@replacementautodealership70.net
469,gfhmt-795-33290,Gamgee's Store Wife Massage Therapy,1551 Mccaslin Ave,Sunrise Manor,Nevada,89823,,
470,bjgcg-3999-8877,Jennifer's Farmer Suffer and Veterinary Medicine,1540 Denning Rd,,West Virginia,25123,803-087-1970,veterinarymedicine@Jenniferfarmer.biz
471,ycuc-351-62203,Daniel's Philosophy Spring and Security Guard,943 Austin Square,Greenwood,South Carolina,29323,513-034-8875,securityguard@Danielphilosophy.co.uk
472,idjxh-721-880,Jennifer's EEternity Suffer and Emergency Medical Services,997 Waldolf Rd,Duluth,Minnesota,56520,208-903-5478,emergencymedicalservices@Jennifer.org
473,zjvss-6245-19714,The White's Target Charity Crop Production,577 Gaslight Ave,Twin Falls,Idaho,83726,316-400-6455,Mark.The White@charitycropproduction.org
474,nou-810-387,Earendil's Climate Quote and Architecture,620 Harrison Ln,Emporia,Kansas,66208,240-351-8512,architecture@Earendilclimate26.co.uk
475,5592-stdpu-413,Ryan's Question Poetry Bookkeeping,425 Wise Place,Bozeman,Montana,59454,,William.Ryan@poetrybookkeeping.com
476,977-uhc-2555,Erestor's AAnnalle Quote and Truck Transportation,1769 Hampton Path,,West Virginia,26104,225-129-1648,Lawrence.Erestor@trucktransportation.us
477,sye-688-55846,Ecthelion's JJinx Test and Hotels,1713 Tedrick Drive,Slidell,Louisiana,70884,385-212-9148,hotels@Ecthelion.org
478,epvm-8723-1265,Proudfoot's Release Uncle GED Certification,1699 Devin Heights,Millcreek,Utah,84313,,
479,ampj-1089-7100,Kathleen's Protect Reality Sports Agency,1538 Brick Ln,Little Rock,Arkansas,72464,458-413-0206,Jerry.Kathleen@realitysportsagency87.net
480,oae-452-443,The Grey's Target EEternity Plumbing,1520 Julian Boulevard,Independence,Missouri,65565,,Lucy.The Grey@plumbing.net
481,819-zvq-4999,Legolas's Topic Attach and Alcohol and Tobacco Sales,622 Uneeda Crescent,Windham,Connecticut,6534,262-769-9636,alcoholandtobaccosales@Legolastopic.co.uk
482,114-pbpcf-252,Erik's GGail Pa Suffer and Interior Design,907 Chesterfield Ridge,Wausau,Wisconsin,54156,316-147-7277,Alexa.Erik@interiordesign.co.uk
483,841-mittp-5311,Grahame's Praise Disease Tutoring Services,1535 Leon Station,Gardner,Kansas,66007,339-645-1950,Jessie.Grahame@diseasetutoringservices.co.uk
484,lmx-446-39058,The Brown's Agree MMargo Veterinary Medicine,1088 Lafayette St,Lincoln,Nebraska,68925,605-184-7051,veterinarymedicine@The Brown.co.uk
485,9197-vhr-2507,Gandalf's Bath Benefit and Racetrack,424 Beechcreek Court,Sioux Falls,South Dakota,57046,,Albert.Gandalf@bathracetrack.org
486,520-syscy-778,Elentari's AArc Br Select and Landscape Services,722 Richey Crescent,Richfield,Minnesota,56044,,Rachel.Elentari@landscapeservices.us
487,620-uufs-183,Orodreth's Skill Serve and Event Planning,462 Babbs Lane,Drexel Heights,Arizona,85623,405-778-7483,Lilly.Orodreth@skilleventplanning.net
488,iaby-6390-2014,Yvette's Tension Hurry and Livestock and Slaughtery,1627 Penn Rd,Jackson,Mississippi,38776,,livestockandslaughtery@Yvettetension.com
489,tti-250-2667,Donna's Twist Entertainment Grocery,1263 Eastern Ln,Gary,Indiana,46515,513-931-9093,grocery@Donnaentertainment.org
490,eody-836-5417,Bruce's EElza  Store and Construction,938 Royalton Blvd,White Bear Lake,Minnesota,55377,,James.Bruce@construction.co.uk
491,solxr-659-44651,Alcarin's Hurry SSable  Land Surveying,426 Mcarthur Avenue,,West Virginia,26542,,landsurveying@Alcarin.com
492,1350-buh-7581,Kayla's Revenue Understand and Event Planning,1198 Basil Park,Kalispell,Montana,59450,203-437-7044,
493,409-hluba-8988,Butterbur's Develop JJillia Sha Bail Bonds,1067 Foxfire Way,Westport,Connecticut,6095,302-686-6807,bailbonds@Butterbur.net
494,8527-hoi-578,Baggins's Twist Assumption Optometry,1116 Flintridge Road,Dover,Delaware,19884,303-010-7255,Elijah.Baggins@assumptionoptometry.co.uk
495,80017-gkaiv-263,Eowyn's Judge JJinx Dentistry,927 Brookside Terrace,Ca+â-¦on City,Colorado,81428,405-151-0165,Sydney.Eowyn@dentistry.biz
496,8735-ycbao-968,Radagast's WWish  Confess and Nail Salon,1595 Redondo Place,Gulfport,Mississippi,39441,209-076-9860,
497,5277-bojm-2051,Cotton's Impress Replacement Tutoring Services,1314 Eddie Drive,Redondo Beach,California,95687,,tutoringservices@Cottonreplacement.biz
498,frcpn-6565-90084,Khamul's Spring AAshen  Storage,1135 Rains Trail,Shawnee,Kansas,67418,802-044-8285,Dennis.Khamul@storage.com
499,isn-8216-39236,Faramir's IIlta Chat and Chiropractic Office,482 Tridelphia Park,Colchester,Vermont,5481,,Jenny.Faramir@chiropracticoffice.co.uk
