Id,Code,Name,Address,City,State,Zip,Phone,Email
0,eaqqh-990-57719,Jasmine's Test AAnnalle Repair and Maintenance,471 Rice Trail,Florence,Alabama,36877,314-154-8358,Dana.Jasmine@repairandmaintenance.biz
1,ynvn-9089-7781,Sydney's Wife Travel and Photography,1326 Nottinghamshire Station,,New Mexico,87064,480-672-9464,photography@Sydneywife.net
2,900-tizel-832,Hanna's Estate Receive and Cosmetology School,1201 Pratt Terrace,Chandler,Arizona,85639,203-153-8579,cosmetologyschool@Hannaestate.net
3,mew-6656-85497,David's Replacement Dedicate and Record Business,1024 Colburn Ave,Willimantic,Connecticut,6350,802-767-9032,
4,yrgtm-1586-7835,Shirley's MMax M Dedicate and Car Rental,1681 Sandusky Lane,South Burlington,Vermont,5874,401-689-9295,Mark.Shirley@carrental.biz
5,cdhm-683-6823,Brandybuck's Gasp AAshen  Nail Salon,1189 Rigby Trail,Coventry,Rhode Island,2896,,nailsalon@Brandybuck.com
6,tqo-9129-27285,Henry's TTwilight L Hurry and Alcohol and Tobacco Sales,987 Southern Ave,Green Haven,Maryland,21161,458-174-4274,alcoholandtobaccosales@Henry19.org
7,785-xbb-7954,Thingol's Outcome Test and Crop Production,1217 Larzelere Trail,Creve Coeur,Missouri,64137,,Mackenzie.Thingol@outcomecropproduction.com
8,moxd-848-4247,Sylvia's EEldia M Copy and Home Inspection,893 Towers St,West Des Moines,Iowa,50851,907-400-8249,homeinspection@Sylvia.net
9,43680-ctw-9429,Elentari's AAyda V Dedicate and Physical Therapy,1668 Lawson Blvd,Fairbanks,Alaska,99644,231-604-0788,physicaltherapy@Elentari.com
10,986-mdjz-296,Karen's Uncle Step and Specialty Fruit,778 Wayne Street,Las Vegas,Nevada,89147,,Ethan.Karen@unclespecialtyfruit.co.uk
11,ouy-268-9484,Peter's Secretary Target and Auto Dealership,850 Moorewood Station,Dracut,Massachusetts,1370,423-419-4236,autodealership@Petersecretary.net
12,48357-ldcsp-280,Kayla's MMorrin C Prevent and Tutoring Services,850 Newman Blvd,Brentwood,Tennessee,37134,,Douglas.Kayla@tutoringservices.com
13,7635-qdtcw-4328,Nienna's Fund Flight Barber Shop,1303 Hedgewood Blvd,Rapid City,South Dakota,57622,406-092-4665,Nadine.Nienna@flightbarbershop.us
14,cikqx-9355-4952,Christina's WWill Strengthen and Chiropractic Office,1644 Kopchak Drive,Eastchester,New York,14432,252-491-9158,Philip.Christina@chiropracticoffice.us
15,9666-vth-3487,Yavanna's Wood Agree and Cash Advances,1590 Redondo Court,Lynn,Massachusetts,1830,385-257-6058,Alexis.Yavanna@woodcashadvances.co.uk
16,266-ieiwj-7397,Sara's Replacement Store and Veterinary Medicine,622 Crow Drv,Tooele,Utah,84338,,veterinarymedicine@Sarareplacement.net
17,7016-spqzm-7563,Mary's Dedicate YYao Creig NPO,1229 Meridian Ridge,Valley Station,Kentucky,40068,701-396-9063,npo@Mary.co.uk
18,332-qwpu-8515,Curufin's Reputation Slam and Landscape Services,1352 Traci Trail,Midland,Michigan,48858,513-530-8978,landscapeservices@Curufinreputation.com
19,816-znmji-557,Cheryl's Instruct Secretary Physical Therapy,566 Katherine St,Rochester,Minnesota,56229,307-996-6773,
20,2456-ygcm-4058,Maria's Convince AAdrien NPO,994 Redondo Parkway,Rock Springs,Wyoming,82432,808-810-0744,npo@Maria.net
21,4651-lwjd-101,The Grey's Target ZZayne Cr Lawn care Services,686 Wargo Lane,Schofield Barracks,Hawaii,96749,,Ariel.The Grey@lawncareservices.net
22,asu-1092-5211,Treebeard's Strengthen Tennis Funeral Director,1000 Walnut St,West Memphis,Arkansas,72734,215-586-6283,funeraldirector@Treebeardtennis.com
23,aixig-2614-2254,Roger's Fancy YYao Creig Radiology,520 Gaslight Place,Altoona,Pennsylvania,17353,206-231-8297,radiology@Roger.biz
24,epof-5957-27718,Michelle's Assumption Step and Athletic Training,1613 Flint Ave,Richland,Washington,98401,339-914-3225,Mary.Michelle@assumptionathletictraining.net
25,nbswd-6385-83787,Pollando's Information Question and Bank,1707 Olney Park,Lincoln,Nebraska,68774,802-420-0582,bank@Pollandoinformation.biz
26,800-vfi-1125,Nathan's Poetry Pay and Marketing and Advertising,828 Pleasantville Ridge,Rutland,Vermont,5445,210-199-7890,
27,awte-9742-65737,Turambar's AAdrien Quote and Florist,693 Caleb Road,Euless,Texas,76240,,florist@Turambar.co.uk
28,73354-xaoph-369,Shelby's ZZillah Form and Collection Agency,553 Snyder Rd,Hamtramck,Michigan,49036,808-615-6033,
29,67397-nsc-716,Deagol's Convince Physics Bakery,696 Dresden St,Wailuku,Hawaii,96849,229-661-9759,
30,29755-wuu-9229,Nesa's Gasp AAdrien Landscape Services,850 Vaughn Road,Rome,Georgia,31419,,landscapeservices@Nesa.biz
31,hfjsb-5337-3957,Melody's NNoirax De Instruct and Pharmacy,908 Flintwood Ridge,Norton Shores,Michigan,49081,,
32,44742-npf-2324,Elros's WWish  Twist and Bail Bonds,904 Wolford Crescent,Mount Juliet,Tennessee,37414,,bailbonds@Elros.biz
33,40198-upwmx-5625,Nienna's Salad Improve and Security Guard,1678 Lindsay St,Beaver Dam,Wisconsin,54628,,securityguard@Niennasalad.net
34,399-gtm-382,Noah's Confess Shirt Home Health Services,544 Black Station,Jonesboro,Arkansas,72001,,Alexis.Noah@shirthomehealthservices.com
35,ukp-573-508,Ancalagon's Collect Wife Radiology,911 Brookover Drv,Middletown,Delaware,19968,206-992-5874,Julia.Ancalagon@wiferadiology.us
36,2850-qqi-268,Shirley's LLace Select and Athletic Training,482 Fayette Station,Seattle,Washington,99217,,
37,52698-juu-496,Eileen's Engine Judge and Specialty Meat,1446 Mill Road,Kailua,Hawaii,96779,319-187-6248,Russell.Eileen@enginespecialtymeat.org
38,281-weg-172,Crystal's Quote LLuce Naxx Video Production,1244 China Blvd,Johnston,Iowa,52344,480-494-9994,Emma.Crystal@videoproduction.net
39,dolsd-7363-8655,Rebecca's Spring Shirt Livestock and Slaughtery,1078 Dickinson Parkway,Fountain Hills,Arizona,85732,212-378-4930,livestockandslaughtery@Rebeccashirt48.biz
40,bebro-406-4401,Edward's Fund Permission Construction and Utilities,1699 Arch Place,Saint Charles,Maryland,21230,405-500-2009,Richard.Edward@permissionconstructionandutilities.net
41,786-aqi-332,Peter's NNoirax De Arrest and Towing,638 Murray Place,Pearl,Mississippi,39342,,
42,46773-eomn-811,Grace's LLillith  Look and Construction and Utilities,926 Johnson Crescent,Portsmouth,Rhode Island,2881,209-805-9763,constructionandutilities@Grace.co.uk
43,5306-cub-6782,Steven's Protect Death Building Inspection,1388 Dooleys Terrace,Barstow,California,95449,207-665-2447,
44,uehss-6840-113,Yavanna's Convince Reality Vocational Rehabilitation,1483 Ceramic Rd,Waterville,Maine,3907,215-633-7807,Olivia.Yavanna@realityvocationalrehabilitation.biz
45,422-ysph-738,Tulkas's Hurry Bedroom Bookkeeping,735 Ward Boulevard,Plum,Pennsylvania,16103,605-272-5372,bookkeeping@Tulkasbedroom.biz
46,459-dea-9424,Sage's Bedroom Spring and Food and Hospitality,1709 Pinetown Path,Watertown,South Dakota,57107,505-633-3024,foodandhospitality@Sagehospital.com
47,15528-afq-615,Celeborn's Physics Arrest and Landscape Services,1387 Hawk Parkway,,Oregon,97482,859-116-5134,Matthew.Celeborn@physicslandscapeservices.org
48,4232-kif-414,Sharku's GGail Pa Dedicate and Storage,703 Caleb St,Radcliff,Kentucky,42501,240-104-0507,storage@Sharku.co.uk
49,brdyn-3933-9203,Terry's EElphina Improve and Tutoring Services,1382 Mock Park,Butte-Silver Bow (Balance),Montana,59312,314-582-9887,Raymond.Terry@tutoringservices.net
50,ehzk-440-635,Sara's Understand QQuistis G Oil and Gas Extraction and Production,1677 Villa Drive,,New Mexico,87108,859-941-4147,
51,31478-cuz-375,Amanda's Charity Spring and Towing,459 Francis Ln,Pleasure Ridge Park,Kentucky,40514,,Matthew.Amanda@charitytowing.net
52,10380-rby-2463,Gloin's Pay GGail Pa Mortgage Company,1684 Maysville Ave,,West Virginia,25208,605-114-9509,Jesse.Gloin@mortgagecompany.us
53,50213-rpdr-7969,Brenda's Topic Brainstorm and Wholesale Drug Distribution,1504 Northland Heights,Rapid City,South Dakota,57382,401-356-4227,wholesaledrugdistribution@Brendatopic.biz
54,4967-sgq-740,Treebeard's Poetry Fund and Cemetery,1682 Ayers Drv,Portsmouth,Rhode Island,2832,,cemetery@Treebeardpoetry.biz
55,67546-tje-255,Sharku's Opportunity Pay and Storage,1527 Howell Road,Windsor,Connecticut,6505,210-141-1682,
56,ngiv-4593-25453,Finarfin's Attach JJinx Technology Services,1409 Catt Parkway,Corpus Christi,Texas,78616,,
57,835-wgiu-284,Elfhelm's Suffer AAgnes  Locksmith,1586 Fairway Crescent,Ludlow,Massachusetts,1611,480-866-6389,Dorothy.Elfhelm@locksmith10.org
58,31808-azyzv-2098,Maeglin's Reality Judge and Security System Services,789 Palmeraway Ln,Mesa,Arizona,86033,,securitysystemservices@Maeglinreality22.com
59,254-bqdq-843,Evie's Desk Receive and Electrolysis,1416 Lincoln Street,Long Branch,New Jersey,8038,,Quinn.Evie@deskelectrolysis.us
60,51590-gcec-9973,Marie's Form MMemory Ad Bakery,816 Range Place,Painesville,Ohio,44614,458-116-9369,bakery@Marie.com
61,9191-gnlq-9899,Andrew's TThess Develop and Catering,498 Claysville Place,Maryland Heights,Missouri,65261,308-535-4184,catering@Andrew.co.uk
62,bjg-2306-2187,Galadriel's LLuna Receive and Education Child Care Services,602 Kenton Ln,Charlotte,North Carolina,27283,,
63,lrnf-135-6239,Delilah's Hurry Assumption Locksmith,407 Lindale Road,Hollister,California,95835,303-129-5558,Nancy.Delilah@assumptionlocksmith.net
64,126-ggw-9614,Gollum's Tradition Slam and Event Planning,966 Perine Lane,Broomfield,Colorado,80642,,eventplanning@Gollumtradition.co.uk
65,fkd-5980-2699,Rebecca's YYao Creig Arrest and Veterinary Medicine,692 Stacy Ave,Franklin,Massachusetts,1835,,veterinarymedicine@Rebecca.co.uk
66,omw-7456-8788,Nori's Bath Decorate and Medical Office,1301 Crosier Road,Pearl City,Hawaii,96740,401-194-5375,David.Nori@bathmedicaloffice.co.uk
67,tvog-2927-56419,Elrond's Step SSeraphim  GED Certification,1739 Darla Station,Bristol,Rhode Island,2896,302-681-9835,Olivia.Elrond@gedcertification.com
68,4132-gskqr-3866,Lilly's Media Travel and Veterinary Medicine,648 Range Boulevard,Newark,Delaware,19969,,veterinarymedicine@Lillymedia.org
69,548-oftre-644,Logan's Strengthen HHazelmer Oil and Gas Distribution,1355 Clarendon Road,Menasha,Wisconsin,54868,,oilandgasdistribution@Logan.biz
70,2401-tdy-709,Shadowfax's IIlta Benefit and Record Business,1224 Burlington Parkway,Howard,Wisconsin,54434,206-386-0706,recordbusiness@Shadowfax.co.uk
71,774-wkjz-856,Melkor's Poetry Twist and Travel Agency,443 Wilmington Avenue,Lacey,Washington,99356,,travelagency@Melkorpoetry.co.uk
72,diw-800-1062,Maria's WWeiss M Select and Accounting,506 Baughman Trail,,North Dakota,58009,,accounting@Maria.org
73,cfx-9223-754,Eru's Fancy ZZillah Tutoring Services,1759 Darla St,Cheshire,Connecticut,6129,319-743-8146,
74,ezwz-668-161,Alatar's Release Entertainment Investing,1708 Beatty Ridge,Bettendorf,Iowa,50661,206-658-8360,
75,jwxqi-8437-84433,Took's Insert SSable  Locksmith,1655 Bonsels Run,Lacey,Washington,98503,701-785-6388,Sandra.Took@locksmith.net
76,2826-czt-6946,Mablung's Gasp AAdrien Specialty Fruit,723 Mead Drive,Norton Shores,Michigan,48805,701-861-3758,Angie.Mablung@specialtyfruit.net
77,3247-avuax-401,Juan's Brainstorm Response Locksmith,852 Sevall Ln,Eastpointe,Michigan,48207,406-664-2300,Valerie.Juan@responselocksmith.biz
78,eqdj-182-388,Alexander's Spring CCalami Speech and Occupational Therapy,669 College Rd,Wantagh,New York,11249,603-038-4165,Alan.Alexander@speechandoccupationaltherapy.com
79,cpq-963-499,Karl's Weaken AAyda V Physical Therapy,1566 Turtle Station,Whitehall,Ohio,43832,308-468-2155,Charles.Karl@physicaltherapy.us
80,28073-hhfet-254,Ancalagon's MMargo Copy and Bakery,837 Narrows Parkway,New Bern,North Carolina,27410,605-938-6250,Heather.Ancalagon@bakery18.us
81,772-kzlgl-146,Erik's PPandora  Insert and Insurance,887 Lacon Blvd,Sioux Falls,South Dakota,57109,219-343-8014,insurance@Erik.co.uk
82,iit-411-478,Hamfast's Understand People Massage Therapy,1608 Burnell Run,Broad Ripple,Indiana,47032,605-289-7566,
83,10130-hvmvy-2760,Lori's MMorrin C Pay and Child and Youth Services,1442 Euclid Park,Sioux Falls,South Dakota,57438,302-066-6682,childandyouthservices@Lori.org
84,48426-ounf-2443,Barbara's Skill Copy and Mental Health Services,838 Dryden Circle,Newark,Delaware,19805,907-675-2888,mentalhealthservices@Barbaraskill.org
85,26576-qark-6433,Freya's Precede EEternity Vocational Rehabilitation,1669 Sealover Blvd,Fairbanks,Alaska,99850,,Jackson.Freya@vocationalrehabilitation.us
86,28025-bvkzn-428,Elentari's Brainstorm Beer Tanning Salon,454 Fulbrook Parkway,Gulfport,Mississippi,39665,,tanningsalon@Elentaribeer.net
87,10393-hhvyg-4763,Dori's Benefit AAshen  Insurance,708 Eastwood Terrace,Paragould,Arkansas,72567,239-782-3271,insurance@Dori.net
88,173-xtg-236,Eowyn's GGene Hurry and Storage,647 Leslie Road,Palm Springs,Florida,32616,405-887-6317,
89,225-zdr-478,Balin's TThist Look and Photography,1635 Beam Parkway,Pearl,Mississippi,38782,907-067-8385,photography@Balin.net
90,vqytp-4043-8425,Bethany's Spring Wife Agriculture & Forestry and Wildlife Extermination and Pest Control,1205 Norfield Way,Badger,Alaska,99652,,Alexis.Bethany@wifeagriculture&forestryandwildlifeexterminationandpestcontrol.net
91,vfqh-601-70722,Scarlet's Agree Throat Livestock and Slaughtery,732 Dawson Avenue,Bensonhurst,New York,11740,229-802-0812,
92,71600-xrqtj-5226,Madison's Judge LLace Mental Health Services,1304 Milton Circle,Snellville,Georgia,30298,701-715-0315,Betty.Madison@mentalhealthservices.biz
93,837-lfv-8624,Goldberry's LLillith  Precede and Food and Hospitality,1768 Towers Street,Rochester Hills,Michigan,49516,513-645-5218,foodandhospitality@Goldberryhospital.co.uk
94,13693-wwbos-817,Bolger's Weakness Question and Telemarketing,1511 Albert Terrace,Duluth,Minnesota,55748,907-772-8184,Alicia.Bolger@weaknesstelemarketing.us
95,kfo-596-6229,Erkenbrand's Death Praise and Construction,816 Pinkley Court,Eagle River,Alaska,99928,406-229-9068,
96,3325-cybl-211,Isaiah's Slam EEternity Chiropractic Office,1342 Grace Square,Scarsdale,New York,11120,701-792-0979,Randy.Isaiah@chiropracticoffice.net
97,28496-zxp-798,Tuor's Weakness Spring and Truck Transportation,1722 Mary Circle,Madison Heights,Michigan,49779,219-395-5275,Megan.Tuor@weaknesstrucktransportation59.org
98,rqr-1893-148,Sauruman's Know AAgnes  Massage and Day Spa,1332 Hanawalt Heights,Munster,Indiana,47341,859-311-9325,Crystal.Sauruman@massageanddayspa.co.uk
99,whlcx-7864-48825,Gollum's Bath Look and Emergency Medical Transportation,692 Beulah Ave,Okolona,Kentucky,42629,252-295-1891,Lucas.Gollum@bathemergencymedicaltransportation.us
100,pqs-585-61793,Imrahil's MMargo Test and Fishing and Hunting,1592 Wilkins Avenue,Amesbury,Massachusetts,2131,201-795-0878,
101,efpo-4862-684,Pharazon's WWill Insert and Racetrack,1397 Dowling Drv,Sapulpa,Oklahoma,74337,210-769-5836,Adam.Pharazon@racetrack.co.uk
102,48299-ipidj-8861,Fingolfin's Chat LLace Physical Therapy,1540 Elfin Street,Edinburg,Texas,77713,405-723-9628,physicaltherapy@Fingolfin.com
103,eeax-419-622,Turambar's Slam Desk Janitorial and Cleaning Services,1467 Wheelabout Parkway,Southaven,Mississippi,38638,240-459-9308,janitorialandcleaningservices@Turambardesk97.co.uk
104,wsu-6060-63351,Sharon's Gasp Tennis Florist,1532 Chase Station,Missoula,Montana,59433,701-947-8472,
105,eceua-5546-745,Lurtz's Impress LLuna Event Planning,1636 Dyer Drive,Jenison,Michigan,48739,303-683-3941,
106,oqgas-519-633,Ellen's Test Salad Tanning Salon,781 Camden Ln,Greeley,Colorado,80473,,
107,5906-jogl-204,Theoden's ZZima  Benefit and Photography,1121 Harrison St,Willimantic,Connecticut,6877,262-803-3783,Carol.Theoden@photography.com
108,77681-qqufb-4286,Doris's Tension Swing and Vocational Rehabilitation,546 Roper Trail,Racine,Wisconsin,53960,210-285-6263,vocationalrehabilitation@Doristension.com
109,tfyup-7490-37727,Ulmo's Entertainment Spring and Cigarette Manufacturing,1387 Schuler Drive,Pampa,Texas,77254,,cigarettemanufacturing@Ulmoentertainment.org
110,qwa-352-7389,Kementari's IIlta Travel and Collection Agency,1120 Stiers Parkway,Wilmington,Delaware,19730,808-421-7643,collectionagency@Kementaricollection.co.uk
111,9608-pll-879,Hope's Idea Strengthen and Child and Youth Services,1380 Yost Parkway,Waipahu,Hawaii,96768,262-536-7545,childandyouthservices@Hopeidea.biz
112,wanw-4761-21763,Daniel's Bath Target and Cosmetology School,1616 Obetz Boulevard,Wisconsin Rapids,Wisconsin,54479,217-407-7762,
113,mhx-547-390,Dori's Reputation Attach and Veterinary Medicine,1579 Crosier Place,Park Forest,Illinois,61753,,
114,curaa-5794-692,Lara's Outcome Target and Fitness Center,944 Jessamine Place,West Bend,Wisconsin,54650,406-670-4667,fitnesscenter@Laraoutcome.us
115,732-yxs-636,Madison's Instruct Throat Medical Office,1530 Sharon Path,Poughkeepsie,New York,12523,229-572-0474,Jasmine.Madison@throatmedicaloffice.biz
116,728-klw-1304,Scott's Spring AAshen  Grocery,852 Codell Heights,Milledgeville,Georgia,30236,,grocery@Scott62.biz
117,tgimd-509-404,Manwe's Diamond Copy and Pharmacy,1057 Shoop Station,Chillum,Maryland,21773,,pharmacy@Manwediamond.biz
118,utz-451-146,Eomer's Disease Gasp and Hospital,1346 Martin Drive,Clifton,New Jersey,8829,505-687-1511,Harold.Eomer@hospitalhospital.biz
119,902-kfwug-4903,Nesa's Question RRoshia Chr Event Planning,867 Chewelah Drv,,Oregon,97436,,eventplanning@Nesa.us
120,5576-aluce-276,Erika's MMemory Ad Precede and Pawn Brokers,1769 Eastview Trail,Dodge City,Kansas,67202,219-010-3262,
121,95954-zksp-2140,Scott's Throat Slam and Landscape Services,789 Axline St,Lafayette,Indiana,46703,210-837-8519,Sharon.Scott@throatlandscapeservices.com
122,4025-qccy-572,Elwing's LLillith  Fancy and Fishing and Hunting,1752 Wolfe Lane,Channelview,Texas,77838,702-958-9629,fishingandhunting@Elwing.biz
123,okwph-7473-225,Willow's Improve Outcome Speech and Occupational Therapy,501 Peachblow St,,North Dakota,58237,207-105-8434,Samantha.Willow@outcomespeechandoccupationaltherapy.co.uk
124,84733-dbf-763,Bolger's Engine Gasp and Veterinary Medicine,816 Lafayette Lane,Saco,Maine,4455,406-183-7368,Noah.Bolger@engineveterinarymedicine.biz
125,nltfz-8207-970,Elwing's Convince Reputation Telemarketing,623 Villa Blvd,Ithaca,New York,14075,229-683-7279,Kelly.Elwing@reputationtelemarketing.net
126,9136-khbq-6155,Glorfindel's Diamond Select and Tax Preparation,942 Airport Drv,Lithia Springs,Georgia,30090,203-230-6065,taxpreparation@Glorfindeldiamond.co.uk
127,11595-vllwo-616,Kementari's Arrest Climate Cash Advances,700 Blocksom Station,West Hartford,Connecticut,6053,479-288-8362,Oliver.Kementari@climatecashadvances.us
128,14508-dxmq-6699,Zelda's PPandora  Insert and Emergency Medical Services,677 Lark Run,Rogers,Arkansas,72747,316-091-7278,Brian.Zelda@emergencymedicalservices.us
129,cxxha-351-4922,Alcarin's GGriffin  Question and Oil and Gas Distribution,1317 Lucasburg Way,Topeka,Kansas,66834,308-457-9978,Hope.Alcarin@oilandgasdistribution.org
130,cfgm-9240-7928,Joan's Gasp YYello Land Surveying,1132 Restless Boulevard,Durham,North Carolina,28266,,Angelica.Joan@landsurveying.us
131,vdp-9093-5969,Galadriel's Swing AAsema Taxi,602 Tupedo Park,Clearwater,Florida,32353,205-673-4221,Debra.Galadriel@taxi.net
132,97916-ergts-846,The Brown's LLaw Gasp and Real Estate Agency,503 Orders Path,Birmingham,Alabama,36427,401-407-1453,Samantha.The Brown@estaterealestateagency.net
133,3181-xyu-894,Mary's Decorate WWill Pawn Brokers,1329 Freedom Rd,Newport,Rhode Island,2832,201-561-8770,Danica.Mary@pawnbrokers.biz
134,jixo-822-29153,Morgoth's SSybi Decorate and Insurance,1615 Crossgate Way,Norman,Oklahoma,73736,229-763-0628,insurance@Morgoth.biz
135,vsf-4993-512,Angrod's LLuce Naxx Brainstorm and GED Certification,1524 Pershing St,Riverdale,Georgia,31532,,Joan.Angrod@gedcertification.co.uk
136,xror-827-3942,Morgoth's LLillith  Collect and Home Health Services,473 Detroit Crescent,Olney,Maryland,21273,,
137,kaam-662-719,Nienna's Precede YYello Veterinary Medicine,958 Harmony Path,Wenatchee,Washington,98141,252-899-1844,veterinarymedicine@Nienna.org
138,938-oud-218,Palantir's Secretary Instruct and Racetrack,917 Armco Crescent,South Hadley,Massachusetts,1090,,Karen.Palantir@secretaryracetrack.org
139,6246-laj-8148,Eve's Convince Charity Record Business,1224 Clevenger Parkway,Erie,Colorado,80301,,
140,dptlg-400-2684,Amrod's MMorrin C Dedicate and Janitorial and Cleaning Services,1461 Discovery Boulevard,Culver City,California,96085,803-400-0334,
141,slija-385-754,Gildor's Know SSable  Credit Union,889 Powell Way,Taylors,South Carolina,29348,401-084-9084,Kayla.Gildor@creditunion.co.uk
142,8355-hvfjb-9318,Feanor's Quote Bath Cemetery,921 Detroit Ridge,West Warwick,Rhode Island,2871,605-318-9698,Kenneth.Feanor@bathcemetery.us
143,6876-zbx-865,George's Decorate Bath Vocational Rehabilitation,800 Norfield Ave,Sioux Falls,South Dakota,57547,217-422-4395,vocationalrehabilitation@Georgebath.co.uk
144,oplg-391-98271,Finarfin's Weaken Replacement Personal Assistant,1229 Holbein Lane,Charleston,Illinois,62964,201-722-5547,personalassistant@Finarfinreplacement.net
145,zzqrx-439-6567,Maggot's MMorrin C Decorate and Grocery,1368 Parkwood Blvd,Enid,Oklahoma,74733,859-401-1623,grocery@Maggot.us
146,682-zhrh-935,Sauruman's Hurry Idea Dry cleaning and Laundry,1679 Mary Run,Burlington,Kentucky,40322,458-381-0572,
147,29500-syf-464,Clarissa's Collect Salad Auditing,666 Deer Ridge,Kansas City,Missouri,64149,605-168-6462,auditing@Clarissasalad.us
148,346-ysa-678,Maggot's EEternity Swing and Tutoring Services,1661 Dana Rd,Brookings,South Dakota,57632,219-980-4075,tutoringservices@Maggot.biz
149,rklp-450-93557,Cirdan's Strengthen TThess Security System Services,432 Ballov Station,Gary,Indiana,46760,701-120-6945,Jeremy.Cirdan@securitysystemservices.us
150,srux-9575-57715,Bombadil's AAdrien Copy and Cemetery,1516 Zane Court,Shelby,Michigan,49967,206-021-7901,cemetery@Bombadil.com
151,58055-fhrj-109,Gildor's Profession Fund and Substance Abuse Services,972 Hartman Place,Renton,Washington,98038,314-359-2089,
152,gahef-3385-864,Jamie's Throat Dedicate and Equipment Rentals,1373 Workman Crescent,,New Mexico,87035,319-668-5089,Ashley.Jamie@throatequipmentrentals.com
153,41488-qmpf-8705,Ophelia's Convince MMorrin C Tanning Salon,1053 Beverly Street,Burlington,Iowa,51503,385-733-8101,Andrea.Ophelia@tanningsalon72.co.uk
154,12168-obk-513,Aldarion's ZZillah Convince and Collection Agency,1109 Busch Circle,Midvale,Utah,84323,,Claudia.Aldarion@collectioncollectionagency66.co.uk
155,961-wdoi-438,Gildor's Artisan Copy and Contracting,1081 Salgarber Run,Littleton,Colorado,80723,308-767-3029,
156,uddvu-601-8300,Smeagol's Skill Spring and Bail Bonds,1071 Kettering Terrace,Wake Forest,North Carolina,28412,229-207-7990,
157,ajvuo-2893-60973,Margaret's Revenue Strengthen and Technical School,1770 Ridge Blvd,Decatur,Georgia,39870,,
158,xta-9267-9747,Gildor's Twist Artisan Contracting,532 Mckaig Court,Selma,Alabama,36910,225-718-9218,contracting@Gildorartisan.us
159,97579-cqui-925,Nimrodel's Understand AArc Br Hotels,601 Tammy Park,Slidell,Louisiana,71003,423-670-0608,hotels@Nimrodel.biz
160,11793-bkkxm-3100,Aldarion's LLillith  Slam and Mental Health Services,722 Applegate Run,Dyersburg,Tennessee,37010,802-612-1983,
161,80757-thogi-4354,Nimrodel's Reputation Twist and Oil and Gas Extraction and Production,637 Denning Rd,South Burlington,Vermont,5001,480-768-2789,
162,gckzg-761-690,Gothmog's ZZayne Cr Serve and Technology Services,1623 Lancaster Court,Sun City West,Arizona,86507,603-399-7200,technologyservices@Gothmog.biz
163,rwyn-217-71077,Vincent's Test WWill Agriculture & Forestry and Wildlife Extermination and Pest Control,1010 Lubring Ridge,Mason,Ohio,45884,205-215-1232,
164,ownqw-1022-995,Mark's Quote ZZillah Speech and Occupational Therapy,1049 Ridge Court,Selma,Alabama,36802,218-486-4636,
165,aks-1729-58725,Austin's Store Idea Fitness Center,427 Ashburton Circle,Manchester,New Hampshire,3251,276-159-2780,fitnesscenter@Austinidea.us
166,qjuzw-956-45887,Elwing's Assumption Store and Casino,1257 Mundy Square,Fort Hunt,Virginia,24579,802-030-8256,casino@Elwingassumption.co.uk
167,5717-zpmym-5882,Stormcrow's Protect SSable  Auto Dealership,1065 Mcfarland Crescent,South Burlington,Vermont,5301,339-027-5012,autodealership@Stormcrow.net
168,ebw-821-27959,Imrahil's MMax M Spring and Drug Screening,1607 Cranfield Avenue,Kearney,Nebraska,69134,207-975-4235,
169,lmzdi-523-3414,Turambar's NNoirax De Exceed and Security System Services,883 Granville Park,Bangor,Maine,4942,201-020-9432,Isabell.Turambar@securitysystemservices.com
170,548-jgxin-6066,Jerry's Fancy Flight Credit Union,1312 Muirwood Parkway,Tulsa,Oklahoma,74189,302-998-2770,Danica.Jerry@flightcreditunion.com
171,lqsu-207-1233,Melkor's Information Release and Record Business,1562 Stokely Avenue,Middletown,Delaware,19904,,Clarence.Melkor@informationrecordbusiness90.org
172,6301-hfdr-6158,Annatar's Slam Tennis Casino,1736 Blossom St,Rutland,Vermont,5341,209-060-8972,
173,382-bmqjz-315,Joe's Salad Gasp and Taxi,829 Village Trail,Brawley,California,95662,513-103-9201,Levi.Joe@saladtaxi.biz
174,mss-2105-23441,Khamul's Response Dedicate and Oil and Gas Extraction and Production,1553 Rose Trail,Bloomington,Minnesota,56326,480-336-2376,
175,xrsob-465-99721,Ori's Decorate PPandora  Building Inspection,1686 Blalock Path,Payson,Arizona,86001,907-887-0427,Adrianna.Ori@buildinginspection.net
176,uxsem-1371-9808,Fingolfin's Requirement Store and Racetrack,1392 Merryhill Terrace,Anchorage,Alaska,99577,859-109-0582,racetrack@Fingolfinrequirement.net
177,qqgqy-667-761,Nesa's Chat LLuna Personal Assistant,1396 Locksmith Ave,Frankfort,Kentucky,40283,808-717-7753,Dorothy.Nesa@personalassistant.com
178,gxan-3089-95077,Catherine's Strengthen SScarlet Property Management,946 Rockville St,K+ä-½hei,Hawaii,96749,,propertymanagement@Catherine.biz
179,58196-ysc-6657,Manwe's Protect Hospital Substance Abuse Services,838 Nelson Circle,Cranston,Rhode Island,2826,276-229-8396,Claire.Manwe@hospitalhospital.org
180,39415-opp-6722,Hamfast's Revenue Protect and Investing,1351 Tarkman Rd,Fort Hunt,Virginia,20186,212-442-2858,
181,4574-cgj-301,Radagast's Tradition Exceed and Real Estate Agency,1216 Highland Square,Parkville,Maryland,20746,,Melinda.Radagast@traditionrealestateagency27.net
182,7080-xkge-930,Aragorn's Dedicate Information Alcohol and Tobacco Sales,1093 Nora Ridge,Mount Vernon,Illinois,61880,603-661-0802,Grace.Aragorn@informationalcoholandtobaccosales.us
183,zvrz-261-77262,Alatar's Wood Arrest and Alcohol and Tobacco Sales,1025 Cleve Road,Troy,Ohio,43220,701-134-0521,Joyce.Alatar@woodalcoholandtobaccosales.co.uk
184,1662-czr-5088,Clarissa's Outcome Pay and Technical School,405 Stone Path,Burton,Michigan,48028,307-727-7133,Daniella.Clarissa@outcometechnicalschool.biz
185,4277-mxk-3043,Erkenbrand's SScarlet Look and Emergency Medical Transportation,1433 Charles Crescent,Gillette,Wyoming,82925,218-388-6961,emergencymedicaltransportation@Erkenbrand.biz
186,cuxqp-8622-69759,Theodore's Bedroom Prevent and Oil and Gas Extraction and Production,474 Aspen Drv,Manchester,New Hampshire,3745,405-074-7195,Marie.Theodore@bedroomoilandgasextractionandproduction.us
187,ajnde-2227-5587,Evie's Swing AAdrien Property Management,1011 Galigher Station,Natchez,Mississippi,39079,308-588-5343,
188,3159-pcg-736,Felagund's Copy ZZima  Auto Dealership,1748 Graylock Way,Huntersville,North Carolina,27199,225-259-6907,
189,tulkr-2861-70147,Idril's Select User Land Surveying,1636 Harding Road,Harvey,Louisiana,70150,479-141-9700,landsurveying@Idriluser1.net
190,cuth-294-856,Gothmog's Tension Dedicate and Vocational School,540 Royma Boulevard,Searcy,Arkansas,72576,229-316-9904,vocationalschool@Gothmogtension.com
191,ujo-518-178,Lilly's Revenue Arrest and Construction,1214 Tannehill Road,Rome,Georgia,30058,203-160-7970,Eugene.Lilly@revenueconstruction.net
192,34373-pqiwg-850,Niki's Improve SScarlet Fitness Center,889 Salem Blvd,Bristol,Connecticut,6519,,
193,seesh-737-4778,Jasmine's Tradition Attach and Travel Agency,1330 Eastfield Place,Highland Park,Illinois,60636,210-565-9474,Heidi.Jasmine@traditiontravelagency.com
194,93755-imjew-8545,Nazgul's Shirt Question and Home Health Services,1086 Wayne Ave,DeSoto,Texas,88536,252-169-1722,Donna.Nazgul@shirthomehealthservices.org
195,itwc-6697-47908,Elentari's Select AAshen  Trade School,972 Prison Avenue,Beverly,Massachusetts,1561,217-910-7390,tradeschool@Elentari98.org
196,xnk-6994-457,Alyssa's AAnnalle Dedicate and Emergency Medical Transportation,842 Dana Path,Dixon,Illinois,61821,307-519-8404,emergencymedicaltransportation@Alyssa.biz
197,2028-cup-317,Denise's Topic Understand and Travel Agency,1122 Military Station,Laramie,Wyoming,82005,314-391-9269,
198,hltk-312-7788,Nimloth's Judge IIlta Crop Production,986 Galbraith Station,,New Mexico,87512,803-762-9409,cropproduction@Nimloth.com
199,ejh-457-70099,Nicole's Gasp Assumption Tanning Salon,573 Nottingham Path,Socastee,South Carolina,29576,,Eugene.Nicole@assumptiontanningsalon.net
200,6828-vsn-695,Nimloth's Convince Throat Substance Abuse Services,1733 Jensen Trail,Texarkana,Arkansas,72350,308-014-7999,
201,ohmp-286-8166,Isaiah's Gasp Tension Racetrack,579 Sundale Avenue,Durham,North Carolina,28222,505-074-8115,
202,41248-ppi-166,Jessie's AAshen  Confess and HVAC Repair,515 Falt Rd,,Oregon,97487,262-661-4335,Claire.Jessie@hvacrepair.org
203,3541-etcz-122,Gildor's Develop Farmer Property Management,1740 Wallwork Run,Watertown,Wisconsin,54155,,
204,orro-3147-8150,Alexis's Insert LLuna Emergency Medical Services,713 Leon Avenue,Saco,Maine,4260,385-612-2667,emergencymedicalservices@Alexis.us
205,qie-9454-86639,Gimli's Target LLaw Massage and Day Spa,1510 Ferncliff Ridge,South Salt Lake,Utah,84407,458-494-8239,Carolina.Gimli@massageanddayspa.com
206,cpfh-567-90449,Jessica's LLillith  Question and Personal Assistant,510 Kelly Parkway,Warrensburg,Missouri,63349,201-362-7137,
207,rspsb-8273-854,Margaret's Desk Confess and Whiskey Manufacturing,1394 Michigan Lane,McAlester,Oklahoma,73570,303-421-0381,whiskeymanufacturing@Margaretdesk.us
208,367-deuce-142,Terry's Disease Receive and Alcohol and Tobacco Sales,609 Agines Place,Golden,Colorado,80465,209-986-7604,alcoholandtobaccosales@Terrydisease.com
209,olmq-414-9620,Donna's Swing YYello Private Investigator,1716 Pike Station,San Pedro,California,94551,,Zachary.Donna@privateinvestigator.org
210,kjtu-562-998,Teresa's QQuistis G Confess and Truck Transportation,657 Plantation Rd,Pascagoula,Mississippi,39181,207-955-4099,Alice.Teresa@trucktransportation.us
211,lmys-3804-955,Illuvatar's MMorrin C Protect and Specialty Seafood,680 Berkley Ave,West Scarborough,Maine,4074,808-826-8143,specialtyseafood@Illuvatar.org
212,dceiz-6346-1858,Mitch's Poetry Test and Tutoring Services,565 College Square,Kailua,Hawaii,96759,513-800-1216,
213,1266-hlbmb-2715,Justice's Prevent Salad Storage,492 Vroom Park,Duluth,Minnesota,56342,314-901-2825,Kevin.Justice@saladstorage.us
214,95974-ehjp-3688,Haley's Hospital Fancy and Contracting,904 Cannon Court,,New Mexico,87730,240-536-9846,
215,ysneo-475-3272,Cirdan's AAnnalle Swing and Massage and Day Spa,738 Missouri Way,Great Falls,Montana,59071,218-306-6934,massageanddayspa@Cirdan.biz
216,gdcq-5140-949,Tina's Arrest Secretary Chiropractic Office,1358 Henry Park,Merrimack,New Hampshire,3034,,Emma.Tina@secretarychiropracticoffice.org
217,960-sue-7513,Audrey's LLaw Spring and Contracting,1174 Prame Run,Matteson,Illinois,62225,304-170-8004,contracting@Audrey.net
218,sec-1230-526,Zoey's Twist AAnnalle Grocery,421 Albert Terrace,,West Virginia,25121,802-595-7828,
219,241-xqosm-3421,Beverly's Flight Confess and Equipment Rentals,649 Cementary Heights,South Burlington,Vermont,5455,423-862-8993,equipmentrentals@Beverlyflight.co.uk
220,436-tvcs-6999,Finrod's SSybi Attach and Hospital,773 Essex Circle,Springfield,Tennessee,37924,316-316-6060,
221,lbe-2540-52547,Beregond's Bedroom Question and Auditing,1069 Mackenzie Circle,Topeka,Kansas,67448,209-515-7034,Mary.Beregond@bedroomauditing.com
222,ukfk-1124-837,Orome's CCalami Receive and Tutoring Services,740 Mcmillan Trail,Orangevale,California,93463,,tutoringservices@Orome.net
223,259-pgjr-3464,Finwe's Travel Tennis Lawn care Services,515 Bateman Boulevard,Fort Hunt,Virginia,23944,513-684-1458,lawncareservices@Finwetennis89.com
224,zbv-1345-967,Elrond's Chat YYao Creig NPO,1559 Arthur Avenue,Chanhassen,Minnesota,56501,339-995-4796,npo@Elrond.com
225,chbr-1584-9823,The Grey's Outcome Brainstorm and Equipment Rentals,844 Emily Crescent,Hastings,Nebraska,68848,210-886-7228,equipmentrentals@The Greyoutcome.com
226,fidaq-863-258,Chloe's SScarlet Benefit and Cosmetology School,856 Rock St,Carrollton,Texas,78522,802-740-5066,cosmetologyschool@Chloe.us
227,qabt-8035-514,Pamela's SSybi Instruct and Taxi,1575 Stiver Place,South Burlington,Vermont,5152,,taxi@Pamela.org
228,31906-hma-6614,Maeglin's Desk Agree and Mental Health Services,967 Linwood Path,Fremont,Nebraska,68621,218-358-7159,Megan.Maeglin@deskmentalhealthservices.org
229,izew-371-41996,Makenzie's Target AAsema Personal Assistant,944 Ambarassdor Trail,Concord,New Hampshire,3108,215-314-2902,Kate.Makenzie@personalassistant.co.uk
230,svh-3154-1650,Ann's TThist Instruct and Cosmetology School,1135 Kirk Heights,Johnstown,Pennsylvania,19550,803-408-9427,cosmetologyschool@Ann.us
231,abbey-468-38874,Kevin's Desk Collect and Beauty Salon,1392 Holmes Ridge,North Charleston,South Carolina,29424,206-159-6763,Maggie.Kevin@deskbeautysalon.com
232,edm-6644-30831,Celebrimbor's Farmer Question and Emergency Medical Services,654 Hanson Heights,Redmond,Washington,98683,808-944-0005,emergencymedicalservices@Celebrimborfarmer.org
233,cxq-741-92777,Elwing's GGene Weaken and Hospital,1317 Dona Boulevard,Wailuku,Hawaii,96807,206-834-7483,Lauren.Elwing@hospitalhospital.com
234,8026-tha-4472,Helen's Select TThess Beauty Salon,1342 Ederer Ridge,Spokane,Washington,99119,212-568-2782,
235,4077-hmok-421,Ingwe's RRoshia Chr Swing and Towing,1700 Dana Trail,Easton,Maryland,21041,207-573-0882,
236,buegp-3908-495,Quickbeam's Death Slam and Emergency Medical Transportation,533 Merlin Place,South Portland,Maine,4471,210-941-5698,emergencymedicaltransportation@Quickbeamdeath.org
237,5670-rcx-130,Maeglin's ZZillah Test and Fishing and Hunting,1093 Hamline Path,Bellaire,Texas,75044,207-559-6139,
238,bqbu-471-66741,Daniel's EElza  Test and Funeral Director,648 Rawson Drive,Biddeford,Maine,4449,201-743-6538,Mitch.Daniel@funeraldirector.biz
239,thz-547-421,Gloin's Step GGene Home Inspection,539 Greenbriar Drive,Yukon,Oklahoma,73153,,homeinspection@Gloin.org
240,91382-txk-5613,Radagast's Arrest Disease Security Guard,1184 Tannehill Place,Provo,Utah,84310,206-799-7084,William.Radagast@diseasesecurityguard.net
241,secb-727-8155,Ethan's Uncle Copy and Hotels,1158 Stevy Drive,North Creek,Washington,99185,307-248-7254,Frances.Ethan@unclehotels.net
242,egfj-7051-100,Felicity's Engine Fund and Agriculture & Forestry and Wildlife Extermination and Pest Control,1347 Lubring Avenue,Sheridan,Wyoming,82335,252-222-4175,
243,zde-4978-6833,Niki's Prevent PPandora  Hotels,1499 Date Terrace,Quincy,Massachusetts,2211,304-594-3294,Ronald.Niki@hotels.org
244,71269-klwh-276,Tyler's Chat AAgnes  Crop Production,1489 Kingswood Blvd,,West Virginia,26415,302-024-6750,Michael.Tyler@cropproduction.com
245,65777-mzijd-613,Harold's Understand AAsema Building Inspection,1744 Elida Street,Middletown,Delaware,19897,423-066-8904,buildinginspection@Harold.com
246,oaien-2813-9321,Cirdan's Attach RRoshia Chr Home Inspection,1277 Macedonia Square,Tullahoma,Tennessee,37888,304-375-3357,
247,7072-xgjf-208,Bregolas's AArlin Gasp and Sports Agency,1130 Beauty Run,,West Virginia,25916,859-669-8631,sportsagency@Bregolas.org
248,vms-2878-544,Makenzie's Question Collection Car Rental,1464 Hardy Court,Richmond,Kentucky,41547,208-216-7324,carrental@Makenziecollection.biz
249,fpjkl-501-70573,Elrond's WWish  Copy and Electrolysis,1146 Clarendon Avenue,Rexburg,Idaho,83852,,
250,8148-pcrri-3268,Levi's Bedroom Chat and Radiology,959 Helene Path,Crest Hill,Illinois,61435,314-404-7846,Melinda.Levi@bedroomradiology.net
251,6911-mtsij-3913,Daniel's AAsema Twist and Home Inspection,796 Wise Circle,,New Mexico,87320,239-416-3853,homeinspection@Daniel.com
252,4930-oapph-6344,Balin's Hurry Profession Residential Care Facility,1336 Duvall Rd,Palm River-Clair Mel,Florida,34276,,residentialcarefacility@Balinprofession.net
253,ctci-153-7095,Mitch's Praise GGail Pa Fishing and Hunting,1634 Alexis Trail,Southaven,Mississippi,38771,458-234-8076,Jessica.Mitch@fishingandhunting.com
254,shw-434-1686,Elwing's RRoshia Chr Chat and Hospital,1003 Fleming Heights,Independence,Missouri,65259,401-712-6143,
255,42842-drf-3660,Feanor's Prevent AArlin Emergency Medical Services,989 Penney Ln,North Kingstown,Rhode Island,2911,513-251-5378,emergencymedicalservices@Feanor.biz
256,rav-386-29101,Olorin's Farmer Judge and Dry cleaning and Laundry,1060 Sheridan Blvd,Andover,Minnesota,55343,,Julia.Olorin@farmerdrycleaningandlaundry.us
257,922-svz-307,Joyce's SSable  Improve and Residential Care Facility,590 Superior Road,,Oregon,97103,,
258,rsaxi-373-2275,Molly's GGail Pa Instruct and Collection Agency,1405 Mailey Ln,King of Prussia,Pennsylvania,16823,401-863-8662,collectionagency@Mollycollection.org
259,937-bhiq-4896,Matthew's Improve Entertainment Technical School,566 London Blvd,Woonsocket,Rhode Island,2883,401-870-7720,Lawrence.Matthew@entertainmenttechnicalschool.co.uk
260,zze-651-32451,Dylan's Strengthen Charity Drug Screening,1627 Depot Boulevard,Woonsocket,Rhode Island,2854,240-279-4184,
261,9241-xkg-3500,William's Quote LLuce Naxx Technical School,1570 Commissioner Ave,Helena,Montana,59036,,technicalschool@William.com
262,2841-pda-361,Eve's WWill Fund and Oil and Gas Extraction and Production,459 Hawkes Drive,South Miami Heights,Florida,33521,702-563-6899,oilandgasextractionandproduction@Eve.com
263,9379-bfm-6338,Maggot's Instruct Skill Personal Assistant,1056 Frazeysburg Boulevard,,North Dakota,58124,231-973-7928,Timothy.Maggot@skillpersonalassistant.co.uk
264,70381-sfews-471,Proudfoot's MMorrin C Look and Fitness Center,1739 Hinman Path,Spring Valley,Nevada,89702,505-713-1042,
265,szvj-8588-63040,Vincent's Step WWeiss M Remodeling,705 Sevall Road,,Oregon,97633,339-899-6947,
266,856-curi-9306,Joyce's Spring MMax M Technical School,917 Sunray Trail,Omaha,Nebraska,68860,603-152-3765,
267,459-ibtep-7339,Miriel's Charity Instruct and Landscape Services,423 Mcfarland Crescent,Brunswick,Ohio,44251,218-874-7420,landscapeservices@Mirielcharity.us
268,jjrwh-5732-7922,Camilla's Chat Information Event Planning,1160 Cornell Park,Laconia,New Hampshire,3752,314-235-3111,eventplanning@Camillainformation.co.uk
269,ttr-935-95812,Alisa's Chat LLaw Food and Hospitality,1575 Wedgewood Terrace,,New Mexico,87711,205-644-3850,foodandhospitality@Alisahospital.us
270,rccqj-736-852,Gloin's Confess EEternity Real Estate Agency,419 Bailey Ridge,Northport,Alabama,36457,385-922-1105,realestateagency@Gloinestate.net
271,31862-bgila-3389,Halbarad's Replacement Praise and Architecture,755 Virginia Rd,Highland,Utah,84701,303-142-9450,Donald.Halbarad@replacementarchitecture.biz
272,65412-exaif-515,Theoden's Look Flight Private Investigator,797 Crow Avenue,Brighton,Colorado,80440,479-390-7082,
273,wojfi-5623-39819,Katrina's Target MMargo Auditing,876 Sofin Way,Bentonville,Arkansas,71945,303-999-0469,
274,had-6843-6070,Iris's Gasp Charity Bakery,1408 Celina Drv,Littleton,Colorado,81067,207-707-1321,
275,335-ezfss-3036,Daniel's Weaken Engine Bail Bonds,1613 Olive Station,Westbrook,Maine,4489,803-006-7263,
276,7650-drw-916,Ellie's WWill Travel and Agriculture & Forestry and Wildlife Extermination and Pest Control,1201 Clearey Drive,North Augusta,South Carolina,29665,,agriculture&forestryandwildlifeexterminationandpestcontrol@Ellie.net
277,ltswp-367-5269,Durin's Insert Information Truck Transportation,1653 Sudbury Place,Gautier,Mississippi,39710,316-077-4078,trucktransportation@Durininformation.us
278,xyoo-647-408,Glorfindel's Select Beer Drug Screening,1686 Pfeiffer Lane,Leavenworth,Kansas,67851,,Brian.Glorfindel@beerdrugscreening.com
279,15331-jfa-5009,Liam's Collect Entertainment GED Certification,1013 Ridgeland Circle,Kennewick,Washington,98323,240-865-1152,gedcertification@Liamentertainment.co.uk
280,liqx-5296-944,Quinn's Prevent ZZillah Home Inspection,967 Cowden Lane,Bozeman,Montana,59028,,Amanda.Quinn@homeinspection25.com
281,apj-965-384,Dana's Desk Receive and Athletic Training,1360 Rehl Heights,Jacksonville,Arkansas,71670,218-574-3989,
282,pzmu-5449-38563,Josie's Arrest Throat Substance Abuse Services,876 Narrows Station,Salem,New Hampshire,3079,,Scarlet.Josie@throatsubstanceabuseservices.com
283,4694-wop-389,Aldarion's Pay AAshen  Contracting,696 Monroe Drv,Merrimack,New Hampshire,3840,276-601-5980,Judy.Aldarion@contracting63.us
284,kmkjc-858-16934,Ariel's Strengthen LLillith  Telemarketing,1317 Spruce Court,Fort Hunt,Virginia,24026,458-994-1484,Nicole.Ariel@telemarketing.us
285,apud-863-24178,Elros's Know AAdrien Auditing,1416 Lawson Boulevard,Rolla,Missouri,63348,,
286,71493-tyzy-4616,Morgoth's WWish  Fancy and Casino,1705 Bonifield Road,Rutland,Vermont,5652,276-949-3736,casino@Morgoth.co.uk
287,79064-nbgw-544,Thorondor's Precede Bath Credit Union,555 Tupedo Terrace,Fort Hunt,Virginia,24656,,
288,193-aqq-6961,Elwing's Slam Wood Cash Advances,1462 Mcclain Drive,Pearl River,New York,11737,808-968-4623,cashadvances@Elwingwood62.net
289,sdsaw-697-924,Glorfindel's QQuistis G Look and Athletic Training,1612 Smithfield Heights,Schofield Barracks,Hawaii,96827,210-792-3500,Lucy.Glorfindel@athletictraining.biz
290,lxi-6322-78684,Elentari's Media Confess and Tanning Salon,1701 Front Boulevard,Brushy Creek,Texas,78265,,tanningsalon@Elentarimedia3.net
291,265-ceqxd-9643,Lucas's Store Response Barber Shop,1012 Wheatland Crescent,Sandusky,Ohio,44471,406-405-0083,barbershop@Lucasresponse.net
292,pgpzi-393-33426,Erestor's Reputation Improve and Investing,1455 Grandview Drive,Medford,New York,10044,802-973-9103,Denise.Erestor@reputationinvesting.biz
293,qzndd-9492-63672,Timothy's Receive MMemory Ad Athletic Training,1567 Hicks Place,Colchester,Vermont,5069,803-878-0532,Niki.Timothy@athletictraining.com
294,65266-pww-425,Varda's Improve MMargo Taxi,775 Garner Drive,Greenville,South Carolina,29203,458-216-8986,
295,ygj-124-794,Joe's MMorrin C Twist and Chiropractic Office,818 Hamburg Square,Columbia,Missouri,64048,702-450-6607,Claudia.Joe@chiropracticoffice.us
296,8645-tfn-207,Treebeard's Benefit Philosophy Landscape Services,1177 Pierce Street,,North Dakota,58530,,
297,1021-ibb-348,Hope's Chat Reputation Bakery,718 South Street,Berea,Ohio,45866,423-611-4876,bakery@Hopereputation.org
298,zsdwy-987-675,Fingolfin's Understand Hospital Video Production,1404 Wortman Park,Nashville,Tennessee,37717,219-040-1084,Judy.Fingolfin@hospitalvideoproduction.us
299,fqwd-900-8617,Kili's TTwilight L Chat and Telemarketing,1232 Edna Lane,Jeffersonville,Indiana,46794,,
300,69703-ckqpl-863,Richard's TThess Precede and Pawn Brokers,925 Madison Heights,Portland,Maine,4110,314-842-9991,pawnbrokers@Richard.biz
301,915-tgr-5217,Ariel's Secretary Quote and Cash Advances,1778 Manning Blvd,,New Mexico,88115,304-811-1305,
302,yljv-5956-340,Maeglin's Requirement Fancy and Residential Care Facility,480 Arcadia Court,,West Virginia,25628,505-889-1913,residentialcarefacility@Maeglinrequirement.org
303,915-egbfc-601,Durin's Copy Response Vocational Rehabilitation,1155 Zanesville Crescent,,Oregon,97498,,
304,swd-553-86564,Treebeard's LLillith  Understand and Remodeling,1332 Patch Avenue,San Bruno,California,95521,252-260-8182,Cynthia.Treebeard@remodeling.biz
305,6263-jwb-9298,Amanda's Swing GGail Pa Security System Services,1387 Stansberry Circle,Everett,Massachusetts,2355,229-728-6310,Josie.Amanda@securitysystemservices.org
306,960-pvlha-4399,Keith's Weakness Strengthen and Athletic Training,938 Nor-Bixbey Parkway,Dublin,Georgia,30557,231-346-0309,
307,2945-blmtg-875,Cotton's Arrest GGene Mental Health Services,791 Armco Rd,Carson City,Nevada,89048,262-017-8837,Crystal.Cotton@mentalhealthservices.net
308,27643-ljlyb-9755,The Grey's Question EElaine Sha Tutoring Services,1708 Keystone Crescent,Ashwaubenon,Wisconsin,53586,262-409-1389,tutoringservices@The Grey.net
309,6928-iezg-3460,Feanor's Understand MMemory Ad Insurance,1308 Hardy Avenue,Wauwatosa,Wisconsin,53199,339-712-5808,Alexis.Feanor@insurance69.com
310,94168-psqas-8673,Lurtz's Weaken LLillith  Livestock and Slaughtery,938 Orchard Lane,Hastings,Nebraska,68934,316-341-9881,Iris.Lurtz@livestockandslaughtery.us
311,cpwt-600-272,Tuor's IIlta Understand and Specialty Fruit,1646 Lark Crescent,Shawnee,Kansas,66056,808-875-6455,Tina.Tuor@specialtyfruit.us
312,umdy-464-719,Lauren's Benefit Hospital Concrete Manufacturing,958 Lander Way,Makakilo,Hawaii,96742,207-562-5076,Erik.Lauren@hospitalconcretemanufacturing.org
313,738-rmgi-3130,Abigail's Travel Salad Security System Services,1800 Kahler Trail,Brunswick,Maine,4428,702-623-9298,Ann.Abigail@saladsecuritysystemservices23.org
314,sbyt-7518-901,The Grey's Know HHazelmer Child and Youth Services,977 Merlin Street,,North Dakota,58345,218-915-9032,Kylie.The Grey@childandyouthservices.com
315,emqmh-191-652,Joe's Artisan Exceed and Insurance,1154 Dillon Station,Concord,New Hampshire,3431,210-971-6102,insurance@Joeartisan.us
316,fbam-8021-67444,Ulmo's Collection Quote and NPO,694 Wetsell Avenue,Conroe,Texas,75303,,Jacqueline.Ulmo@collectionnpo.us
317,fvwpi-9568-4143,Fingolfin's ZZayne Cr Test and Chiropractic Office,704 Stiver Trail,,West Virginia,24954,,chiropracticoffice@Fingolfin23.com
318,726-dpqao-8330,Morgoth's Skill Pay and Emergency Medical Transportation,575 Sugartree Ridge,Syracuse,New York,11597,231-297-8020,Tara.Morgoth@skillemergencymedicaltransportation.com
319,1534-dvof-147,Cindy's SSybi Pay and Dentistry,1576 Harmon Square,Sunrise Manor,Nevada,89143,209-794-0868,
320,1799-aaewa-2090,Marilyn's Step LLuna Tutoring Services,1250 Normandy Trail,Loma Linda,California,91979,316-507-5012,Evie.Marilyn@tutoringservices.com
321,1170-ock-385,Barahir's Chat EElaine Sha Hospital,1108 Fairmont Drive,Leavenworth,Kansas,67632,302-144-0860,
322,kyd-5763-11375,Russell's Chat Shirt Interior Design,801 Larry Circle,Newark,Delaware,19973,319-106-5477,
323,qvwux-3813-89074,Adam's Precede AArlin Concrete Manufacturing,1288 Cecil Avenue,Des Moines,Iowa,52739,219-549-1210,Liam.Adam@concretemanufacturing.co.uk
324,63436-ymmz-1339,George's Pay MMax M Repair and Maintenance,1667 Merlin Street,Clarksville,Indiana,47025,505-750-5275,Kelsey.George@repairandmaintenance.net
325,6395-lkrj-622,Erik's Target AArc Br Specialty Fruit,1143 Fairmount Court,,Oregon,97402,,specialtyfruit@Erik.net
326,vkf-9748-42365,James's Decorate GGene Storage,876 Stout Ln,Pine Bluff,Arkansas,72168,401-427-4471,Nancy.James@storage7.net
327,vryq-2537-4091,Deagol's SSeraphim  Exceed and Substance Abuse Services,837 Chapman Path,Smithfield,Rhode Island,2919,,substanceabuseservices@Deagol.us
328,2991-bjdv-7477,Gamgee's Collect GGene Equipment Rentals,1608 Rice Heights,Fort Hunt,Virginia,22211,212-893-9355,Emily.Gamgee@equipmentrentals.net
329,lhkl-836-67086,Helen's Bedroom Strengthen and Embalmer,445 Coshocton Ave,Olney,Maryland,21048,262-321-7801,
330,ncm-6326-903,April's LLuna Confess and Residential Care Facility,1347 Colburn Drv,Wisconsin Rapids,Wisconsin,53585,316-214-1409,residentialcarefacility@April.com
331,10744-wnj-2945,Gorbag's Dedicate WWill Agriculture & Forestry and Wildlife Extermination and Pest Control,1726 Blue St,Prairie Village,Kansas,66214,,agriculture&forestryandwildlifeexterminationandpestcontrol@Gorbag.net
332,980-ush-4506,Elendil's PPandora  Quote and GED Certification,1661 Norris Ridge,,North Dakota,58269,,gedcertification@Elendil.us
333,hyr-575-62354,Annatar's Release YYello Hotels,1393 Pleasantville Circle,Waldorf,Maryland,21654,276-650-1111,Judy.Annatar@hotels.us
334,25318-kgyc-3627,Balin's Slam YYello Specialty Meat,1735 Lambert Drive,Fort Hunt,Virginia,24609,308-214-2551,specialtymeat@Balin.us
335,6262-gjb-5658,Denise's ZZima  Instruct and Cosmetology School,1693 Gomber Park,Shelby,North Carolina,28768,314-989-1365,Linda.Denise@cosmetologyschool.us
336,95884-zdort-1795,Olivia's Opportunity Select and Sports Agency,1762 Thompson Crescent,,New Mexico,87554,859-514-4745,
337,1350-pbxz-9268,Andrea's Decorate AAsema Personal Assistant,1200 Kahler Drv,Georgetown,Kentucky,41201,205-847-1540,
338,2919-qdh-8306,Khamul's Question GGail Pa Event Planning,1441 Mckaig Path,Birmingham,Alabama,35755,,
339,hmzc-6461-53170,Earendil's Prevent Collection Home Inspection,1072 Pershing Place,Brighton,Colorado,80329,,homeinspection@Earendilcollection55.org
340,8529-jrhpt-3340,Turambar's EEldia M Praise and Publishing Services,787 Crock Blvd,Arlington,Texas,77344,239-076-2731,publishingservices@Turambar.net
341,49107-rcu-976,Deagol's Climate Arrest and Barber Shop,1253 Babbs Boulevard,Lake Butler,Florida,32730,458-099-7167,barbershop@Deagolclimate.com
342,icor-815-61801,Sarah's EElaine Sha Spring and Hotels,504 Lectric Lane,Independence,Missouri,63664,219-976-1688,Cheryl.Sarah@hotels.co.uk
343,75418-wbkc-840,Eru's RRoshia Chr Protect and Trade School,1521 Limestone Run,Schererville,Indiana,47633,208-363-9388,Christopher.Eru@tradeschool.biz
344,924-sfjb-564,Steven's Spring Reputation Alcohol and Tobacco Sales,983 Woolper Path,Coeur d'Alene,Idaho,83852,,
345,923-pbv-3154,Emily's Slam TThist Emergency Medical Transportation,1004 Gayla Crescent,Portsmouth,New Hampshire,3812,,
346,mlxk-311-653,Wormtongue's Idea Chat and Mortgage Company,505 Hall Way,Silver Firs,Washington,98685,303-845-5934,
347,91312-heir-7414,Celeborn's Quote EElphina Specialty Fruit,1337 Warwick Drive,Broomfield,Colorado,80046,603-816-4135,Sharon.Celeborn@specialtyfruit.org
348,69596-raq-7251,Nicholas's Agree JJinx Home Health Services,1484 Pfeifer Trail,Vandalia,Ohio,43210,859-974-8868,
349,832-tbs-455,Ellen's Chat EElaine Sha Medical Office,1166 Doru Heights,Ashland,Kentucky,40353,803-155-8897,
350,575-wif-634,Damrod's Store Bedroom Massage and Day Spa,449 Turner Court,Spartanburg,South Carolina,29442,217-607-5914,
351,gsfdr-457-130,David's Chat AArlin Optometry,1286 Rock Run,Zion,Illinois,60044,303-444-5885,
352,igqr-258-7830,Jeffrey's ZZayne Cr Develop and Remodeling,1271 Auburn Parkway,Security-Widefield,Colorado,80829,480-722-6445,remodeling@Jeffrey.net
353,ecxn-913-927,Christopher's Insert Opportunity Telemarketing,1785 Johnstown Heights,San Luis,Arizona,85911,,
354,dsc-8897-118,Helena's WWish  Form and Property Management,476 Broadvue Station,,West Virginia,26143,605-003-7814,propertymanagement@Helena.net
355,9137-tzmg-699,The Brown's Permission Strengthen and Private Investigator,720 Toni Street,Rapid City,South Dakota,57745,240-763-9078,
356,1408-lmk-620,Harold's Question Replacement Interior Design,1439 Palamino Rd,Missoula,Montana,59031,319-999-5589,Monica.Harold@replacementinteriordesign.net
357,315-sqz-138,Albert's AAsema Confess and Employment Office,1208 Dunham Drive,Mason City,Iowa,52079,802-054-6067,Kathleen.Albert@employmentoffice77.com
358,gkb-9539-31560,Elfhelm's Bedroom Step and Bail Bonds,1017 Middle Path,Colchester,Vermont,5448,859-741-1132,bailbonds@Elfhelmbedroom.org
359,lddaw-904-9389,Clarence's Suffer YYello Credit Union,974 Sofin Run,Newport,Kentucky,42286,,
360,3427-grzk-462,Ori's Protect AAyda V Used Car Sales,419 Stillmeadow Ave,Houma,Louisiana,70525,,
361,rienn-8228-7076,Alatar's Copy TThess Event Planning,1183 Hewitt Circle,Colchester,Vermont,5651,,Joyce.Alatar@eventplanning.co.uk
362,gsar-2972-63242,Idril's Improve Diamond Investing,1335 Tremont Place,Prairie Village,Kansas,66401,308-142-6085,
363,61095-aghu-802,Brenda's AAshen  Receive and Athletic Training,1705 Rider Run,Carrboro,North Carolina,27342,513-558-6447,Joseph.Brenda@athletictraining.us
364,aaecs-168-557,Grace's Improve WWeiss M Vocational School,1201 Marsha Park,Winona,Minnesota,55417,,
365,lejam-176-80896,Joshua's AAyda V Praise and Construction and Utilities,1628 Tranquility Way,Fort Hunt,Virginia,23110,206-743-3623,
366,841-qit-6088,Aragorn's Instruct PPandora  Emergency Medical Transportation,777 Burbank Rd,Yakima,Washington,98466,229-857-4464,emergencymedicaltransportation@Aragorn.org
367,6933-gkwf-385,Gerald's Replacement Select and Bookkeeping,1075 Moccasin Court,Suwanee,Georgia,30331,210-982-5655,Steven.Gerald@replacementbookkeeping.co.uk
368,91738-kzv-5503,Elfhelm's Improve Throat Massage and Day Spa,448 Spratt Ln,Cedar Hill,Texas,78117,401-105-3137,
369,vwvdr-589-6073,Carolina's Shirt Fund and Lawn care Services,1268 Philadelphia Lane,West Warwick,Rhode Island,2862,423-013-2644,
370,549-mkh-723,Turambar's Praise Secretary Medical Office,802 Nottinghamshire Parkway,East Brainerd,Tennessee,37868,406-379-9325,
371,6484-ixgp-8767,Leo's Strengthen AAsema Funeral Director,542 Sheila Square,Pearl River,New York,10969,219-709-7443,Emily.Leo@funeraldirector.net
372,weay-664-33469,Josie's Hurry SScarlet Fishing and Hunting,1579 Marion St,Griffith,Indiana,47360,,
373,745-lbmze-867,Huan's Benefit TTwilight L Travel Agency,890 Benjamin Run,,West Virginia,26354,207-101-7117,Wendy.Huan@travelagency.com
374,lxevc-5467-78530,Fingolfin's Reputation Store and Landscape Services,940 Hinman Run,Saco,Maine,4847,,landscapeservices@Fingolfinreputation.com
375,kmgb-265-7861,Morgoth's Reputation Instruct and Landscape Services,536 Perdue Circle,Leisure City,Florida,34479,228-483-9338,
376,krufs-641-429,Justice's Insert NNoirax De Massage and Day Spa,838 Parry Square,Orange,New Jersey,7042,,Olivia.Justice@massageanddayspa.org
377,24865-nftis-8643,Gildor's Uncle Prevent and Interior Design,1023 Blocksom Way,Jonesboro,Arkansas,72006,316-085-7226,Daniel.Gildor@uncleinteriordesign.com
378,410-hwzja-4574,Turin's GGriffin  Twist and Auto Dealership,450 Denbigh Place,Newton,Kansas,67637,308-108-4268,Evelyn.Turin@autodealership.net
379,hxn-449-1579,Illuvatar's Target IIlta Photography,1651 Buckingham Drive,Lexington,North Carolina,27031,803-097-7812,
380,301-xkaa-689,Gary's Benefit Bath Radiology,1346 Marsha Street,Greenwood,South Carolina,29425,,
381,ipf-8470-8696,Grace's Insert Artisan Mortgage Company,1408 Arnold Run,+óGé¼-£Ewa Gentry,Hawaii,96710,401-977-8230,mortgagecompany@Graceartisan.com
382,qcu-515-54588,Barbara's Pay RRoshia Chr Technical School,1040 Sharonwood Street,North Kingstown,Rhode Island,2909,210-871-6276,technicalschool@Barbara.co.uk
383,gnk-161-29988,Angie's Fancy Hospital Livestock and Slaughtery,605 Lincoln St,Deer Park,Texas,77257,239-734-5187,Vincent.Angie@hospitallivestockandslaughtery95.org
384,hrb-440-3700,Lucy's Know Revenue Investing,1077 Juanita Crescent,The Villages,Florida,33463,505-348-2971,investing@Lucyrevenue.net
385,bhg-9352-5240,Lori's Understand CCalami Catering,1667 Jessamine Rd,,Oregon,97536,,
386,oxqht-7328-8826,Jennifer's Improve Disease Veterinary Medicine,1720 Lock Place,Brunswick,Maine,4455,,veterinarymedicine@Jenniferdisease.net
387,4864-ana-6132,Butterbur's Instruct AAshen  Security Guard,1142 Bolton Crescent,Kailua,Hawaii,96757,,Quinn.Butterbur@securityguard.com
388,jjsq-154-2330,Mandos's Slam EElza  Locksmith,1685 Juniper Ridge,,West Virginia,25044,229-382-7409,locksmith@Mandos.net
389,yuffh-483-923,Hanna's Swing Media Real Estate Agency,1376 Holliday Trail,Augusta,Georgia,30573,,realestateagency@Hannamedia.co.uk
390,9311-leazo-981,Abby's Collect Wood Emergency Medical Transportation,1179 Newport Boulevard,,New Mexico,87535,385-752-0803,emergencymedicaltransportation@Abbywood.com
391,9731-nwlgp-1046,Stormcrow's Precede SSybi Tutoring Services,1286 Harmony Drv,Kearns,Utah,84319,252-428-4018,tutoringservices@Stormcrow.co.uk
392,2480-qeh-5542,Nesa's Protect Bedroom Pawn Brokers,698 Carver Ridge,Danvers,Massachusetts,1807,209-028-6591,
393,ards-652-6521,Nimrodel's Desk Select and Tax Preparation,1562 Brick Rd,Coachella,California,93190,,Nicole.Nimrodel@desktaxpreparation.co.uk
394,klel-377-229,Shelob's Fund Uncle Massage and Day Spa,1371 Stansberry St,Issaquah,Washington,99032,,Timothy.Shelob@unclemassageanddayspa22.co.uk
395,hyjbm-457-5056,The Grey's Brainstorm SSeraphim  Medical Office,1452 Kirk St,Bixby,Oklahoma,74015,702-156-5310,Olivia.The Grey@medicaloffice.org
396,qbxlr-8194-79392,Eva's Farmer Target and Sports Agency,1228 Purvis Heights,,North Dakota,58734,479-347-9017,
397,84893-iic-8452,Nienna's PPandora  Attach and Chiropractic Office,464 Christopher Ave,Maumelle,Arkansas,72150,,Dana.Nienna@chiropracticoffice.biz
398,xyzd-299-73436,Gil-Galad's Spring ZZayne Cr Embalmer,903 Danville Ave,Flower Mound,Texas,78114,,embalmer@Gil-Galad.net
399,cdg-9904-83073,Aragorn's Reputation Pay and Plumbing,867 Deer Square,Jonesboro,Arkansas,71740,405-987-5525,Angie.Aragorn@reputationplumbing.org
400,qulu-783-677,Olorin's MMax M Pay and Travel Agency,905 Wisteria Path,Brandon,Mississippi,38754,207-056-2723,Katrina.Olorin@travelagency.com
401,nhgn-4663-533,Palantir's LLuce Naxx Decorate and Fishing and Hunting,993 Eastview Ln,Lewiston,Maine,4629,201-592-0484,
402,45245-rrzmg-2556,Faramir's Fancy Reputation Radiology,708 Pleasantville Trail,Ardmore,Oklahoma,73086,231-385-5244,radiology@Faramirreputation.org
403,10973-thzt-7740,Albert's Understand SScarlet Livestock and Slaughtery,939 King Boulevard,Winchester,Nevada,89017,,Lydia.Albert@livestockandslaughtery.org
404,81646-tllug-5539,Rebecca's Exceed Shirt Janitorial and Cleaning Services,1220 Homeless Ridge,Holyoke,Massachusetts,1238,479-668-5418,
405,nazaf-287-72810,Shelob's Weaken AArc Br Lawn care Services,1554 Garfield Court,Benton,Arkansas,71836,859-252-7607,lawncareservices@Shelob.net
406,1723-xuwzv-6773,Monica's ZZayne Cr Insert and Publishing Services,907 Glenn Ln,Radcliff,Kentucky,41102,,publishingservices@Monica.com
407,4428-uom-2110,Jacqueline's Agree GGriffin  Funeral Director,960 Jewett Station,South Ogden,Utah,84190,316-089-5104,
408,469-ghsbh-417,Finarfin's QQuistis G Collect and Architecture,457 Chapman Square,Hays,Kansas,66951,319-319-8220,architecture@Finarfin.com
409,bxno-4612-710,Arwen's Store Information Fishing and Hunting,1723 Solida Drv,Davenport,Iowa,52160,603-333-3788,Lauren.Arwen@informationfishingandhunting.us
410,feg-777-62621,Sylvia's Wood Insert and Video Production,425 Alvin Parkway,Akron,Ohio,43843,702-062-6204,
411,933-yte-580,Oakenshield's Twist AAgnes  Catering,837 Dixie Place,,North Dakota,58043,479-296-6087,Donna.Oakenshield@catering.biz
412,arm-661-3672,Abigail's YYello Improve and Marketing and Advertising,1802 Beechmont Heights,Forrest City,Arkansas,72377,,Alyssa.Abigail@marketingandadvertising.us
413,sae-706-2961,Tulkas's Twist RRoshia Chr Agriculture & Forestry and Wildlife Extermination and Pest Control,1599 Durban Court,Chicopee,Massachusetts,1152,423-821-6473,Ryan.Tulkas@agriculture&forestryandwildlifeexterminationandpestcontrol.net
414,6510-wptd-6523,Curufin's Select SScarlet Car Rental,531 Cleve Ln,East Ridge,Tennessee,37324,,Timothy.Curufin@carrental.net
415,9148-srjon-363,Patricia's Travel QQuistis G Cigarette Manufacturing,1304 Orders Boulevard,Sanford,Florida,33785,252-728-5581,cigarettemanufacturing@Patricia.biz
416,43027-tlv-5883,Celeborn's SSybi Improve and Insurance,486 Gratiot-Newark Rd,Jamaica Plain,Massachusetts,2109,228-705-5151,Norah.Celeborn@insurance.net
417,rtzru-688-1467,Nimrodel's WWeiss M Strengthen and Grocery,748 Public Drv,Plainfield,New Jersey,8097,218-654-5785,
418,rft-980-67007,Finarfin's Benefit Disease Investing,1581 Inwood Ln,Derry Village,New Hampshire,3289,,investing@Finarfindisease.co.uk
419,501-kym-441,Elijah's Select Reality Tanning Salon,656 Cranfield Ave,Gillette,Wyoming,82837,207-444-2346,
420,jic-9321-6419,Ryan's TTwilight L Select and Emergency Medical Transportation,992 Sheandoah Square,Portland,Maine,4624,907-714-3974,
421,8511-qdihy-2650,Toki's Weaken WWeiss M Construction and Utilities,573 Catalpa Heights,Anchorage,Alaska,99782,406-516-4281,Autumn.Toki@constructionandutilities.com
422,jnkjb-7158-6410,Cynthia's Permission Decorate and Photography,1664 Rosewood Ridge,Oceanside,New York,13842,405-982-5043,photography@Cynthiapermission.co.uk
423,72989-lwuy-9891,Bolger's Fund PPandora  Livestock and Slaughtery,831 Jefferson Boulevard,West Gulfport,Mississippi,39601,,livestockandslaughtery@Bolger.biz
424,298-zrpn-368,Huan's Exceed Charity Livestock and Slaughtery,560 Garrell Lane,Provo,Utah,84525,,livestockandslaughtery@Huancharity61.biz
425,ywxrm-7499-21142,Eru's Improve MMemory Ad Car Rental,944 Sundale Road,Muscatine,Iowa,50071,217-740-1941,
426,2332-dbf-4908,Elendil's Weakness Precede and Trade School,1046 Eldwood Road,Lombard,Illinois,61333,603-326-6474,tradeschool@Elendilweakness20.biz
427,50966-rmxz-2886,Kili's Attach EElaine Sha Plumbing,1423 Brandywine Trail,Berea,Ohio,43931,,plumbing@Kili.biz
428,mztk-251-376,Mithrandir's AArlin Fund and Whiskey Manufacturing,1075 Nora Station,Lexington,South Carolina,29430,702-074-7686,Dana.Mithrandir@whiskeymanufacturing.org
429,mlqvj-9202-7776,Juliet's Twist Media Athletic Training,1452 Roemer Drive,,North Dakota,58480,907-985-1045,athletictraining@Julietmedia.co.uk
430,dcj-4003-29684,Averie's Quote People Racetrack,1215 Orton Street,Eagle River,Alaska,99740,319-559-7788,racetrack@Averiepeople.net
431,tnsbf-3998-8441,Elfhelm's SSybi Gasp and Property Management,1111 Clay Terrace,Council Bluffs,Iowa,52339,401-985-4293,Eve.Elfhelm@propertymanagement.us
432,mihc-4256-89099,Angie's Diamond Arrest and Marketing and Advertising,1629 Putnam Blvd,Smithfield,Rhode Island,2883,480-229-0629,Ellie.Angie@diamondmarketingandadvertising.com
433,kszb-6293-700,Damrod's Philosophy Insert and Specialty Meat,1772 Ellis Path,Fountain Hills,Arizona,85212,,
434,8761-dwu-4368,Celeborn's Fancy Charity Bail Bonds,476 Hunter Drive,Holden,Massachusetts,2145,239-300-9995,Thomas.Celeborn@charitybailbonds.us
435,13895-tqr-721,Jade's Engine Brainstorm and Auto Dealership,512 Jenkins Path,Carol City,Florida,33629,803-902-8824,autodealership@Jadeengine.co.uk
436,6509-phy-7807,Juliet's Engine Twist and Specialty Seafood,1701 Smithwood Lane,Columbia,South Carolina,29230,229-581-6606,specialtyseafood@Julietengine.net
437,ybl-366-27687,Stormcrow's Tennis Collect and Florist,1175 Ryan Lane,Roswell,Georgia,31221,,florist@Stormcrowtennis.com
438,94297-luf-681,Mandos's HHazelmer Protect and Funeral Director,1151 Schneider Ridge,Fort Hunt,Virginia,23696,603-805-8643,
439,10871-rga-970,Scott's Profession Target and Agriculture & Forestry and Wildlife Extermination and Pest Control,788 Hendershot Boulevard,Cuyahoga Falls,Ohio,43222,228-576-3460,Miranda.Scott@professionagriculture&forestryandwildlifeexterminationandpestcontrol.biz
440,gygfj-874-83248,Gil-Galad's AAyda V Praise and Photography,809 Arch Parkway,Long Branch,New Jersey,8340,231-906-8386,
441,akg-5912-53323,Daniella's Develop MMorrin C Fitness Center,1697 Idaho Blvd,Winchester,Nevada,89705,803-483-7026,
442,9753-nwdvg-1995,Shelob's Suffer CCalami Barber Shop,1137 Owens Blvd,Greenville,South Carolina,29540,276-374-6462,
443,665-hrvzs-4961,Bracegirdle's Exceed AAgnes  Vocational School,1506 Wells Avenue,Fort Hunt,Virginia,22740,702-050-9469,vocationalschool@Bracegirdle.co.uk
444,mdd-503-49589,Mandos's Agree NNoirax De Telemarketing,494 Federal Circle,,North Dakota,58761,803-504-9437,Ivy.Mandos@telemarketing.com
445,wgp-726-895,Crystal's MMemory Ad Chat and Crop Production,1712 Edwards Place,Florence,South Carolina,29635,210-852-5762,Larissa.Crystal@cropproduction.us
446,bnv-6624-91470,Harold's Slam Charity Truck Transportation,1249 Freedom Drv,Donna,Texas,78285,201-642-3322,Norah.Harold@charitytrucktransportation.co.uk
447,hica-5582-490,Monica's EEternity Receive and Physical Therapy,1614 Goddard Place,Del City,Oklahoma,73178,702-312-7131,physicaltherapy@Monica.us
448,aifs-6191-679,Scott's Precede People Grocery,1220 Raintree Avenue,,North Dakota,58638,219-409-7393,Annabelle.Scott@peoplegrocery.biz
449,208-luhs-6106,Olivia's Develop Profession Technical School,1033 Martin Court,Portage,Indiana,47120,802-306-3134,Sean.Olivia@professiontechnicalschool.co.uk
450,aftt-4532-185,Larissa's Climate Attach and Residential Care Facility,1581 Stansberry Way,Rutland,Vermont,5823,339-280-4103,residentialcarefacility@Larissaclimate.org
451,ocy-9535-940,Sauron's EElza  Step and Land Surveying,1335 Lashley Ln,Hastings,Nebraska,68920,203-849-4151,Janice.Sauron@landsurveying.biz
452,606-wfs-600,Orome's Information Develop and Emergency Medical Services,1169 Grieves Path,Ansonia,Connecticut,6231,603-248-8070,Brianna.Orome@informationemergencymedicalservices.co.uk
453,gmvt-3505-490,Feanor's ZZillah Prevent and Dentistry,1344 Market Street,Zanesville,Ohio,45169,401-821-7005,dentistry@Feanor.co.uk
454,geo-9507-133,Sophie's Select Death Child and Youth Services,791 Browns Court,Westerly,Rhode Island,2888,302-542-6294,childandyouthservices@Sophiedeath.com
455,4472-amm-517,Jeffrey's AArlin Quote and Car Rental,960 Stiers Run,Wilmington,Delaware,19962,,carrental@Jeffrey.net
456,unnxz-2637-90599,Lida's Desk Suffer and Vocational Rehabilitation,468 Potts Street,,Oregon,97089,505-056-5820,vocationalrehabilitation@Lidadesk.net
457,pjdgo-876-31309,Ungoliant's WWill Decorate and Equipment Rentals,1556 Merriam Terrace,,Oregon,97461,458-786-7712,
458,hqr-3515-5835,Valerie's Quote GGriffin  Concrete Manufacturing,572 Navy Avenue,Joplin,Missouri,64750,505-655-5053,
459,zyw-9737-768,Melissa's Collect Bedroom Publishing Services,1161 Bellwood Ave,,Oregon,97412,206-228-0432,Jason.Melissa@bedroompublishingservices.co.uk
460,52543-kkhq-9386,Nancy's TTwilight L Form and Cemetery,1451 Washington Avenue,Parkland,Washington,98166,218-530-1161,cemetery@Nancy.com
461,281-acoi-3488,Proudfoot's Slam LLillith  Tax Preparation,1803 Pierce Drive,Manchester,New Hampshire,3299,239-152-7111,
462,ccjc-2633-98419,Zelda's Arrest EElaine Sha Architecture,613 Harbor Path,Palm Valley,Florida,32868,513-896-0463,Grace.Zelda@architecture.org
463,368-htv-4553,Felagund's AAsema Spring and Child and Youth Services,708 Palomino Rd,Inver Grove Heights,Minnesota,56097,,Gabbi.Felagund@childandyouthservices.co.uk
464,dqaxb-364-28002,Lucy's GGail Pa Decorate and Pharmacy,1621 Carpenter Street,,North Dakota,58351,201-392-6384,pharmacy@Lucy.org
465,81672-ybw-498,Michael's Fancy Information Radiology,998 Ellen Lane,Shawnee,Oklahoma,74827,513-491-7473,
466,7727-ewtd-2404,Scott's Agree TThess Locksmith,1681 Lent Street,Chanhassen,Minnesota,56524,252-745-9787,locksmith@Scott.com
467,63945-ocy-492,William's Beer Instruct and Oil and Gas Extraction and Production,794 Beam Place,Lexington,Massachusetts,2723,215-477-7119,Vincent.William@beeroilandgasextractionandproduction.net
468,gftj-973-15972,Theoden's Assumption Pay and Wholesale Drug Distribution,1578 Venture Avenue,Radnor,Pennsylvania,17964,,
469,5996-nwm-3903,Gollum's Test GGriffin  Oil and Gas Distribution,444 Circleville Crescent,Huntsville,Alabama,35760,303-559-7615,
470,9362-beg-887,Annabelle's Twist Profession HVAC Repair,1781 Bolen St,Broomfield,Colorado,80209,208-236-2596,Henry.Annabelle@professionhvacrepair.net
471,90223-lihe-591,Hurin's Replacement Pay and Vocational Rehabilitation,1015 Darla Ridge,Twin Falls,Idaho,83455,,Ashley.Hurin@replacementvocationalrehabilitation.com
472,gfhmt-795-33290,Teresa's Wife Store and Specialty Meat,1551 Mccaslin Ave,Fort Hunt,Virginia,23439,228-390-3001,
473,bjgcg-3999-8877,Bruce's Farmer Suffer and Architecture,1540 Denning Rd,Willingboro,New Jersey,7735,228-087-1970,architecture@Brucefarmer.biz
474,ycuc-351-62203,Lida's Spring Philosophy Specialty Seafood,943 Austin Square,Marlboro,New Jersey,8903,206-034-8875,specialtyseafood@Lidaphilosophy.co.uk
475,idjxh-721-880,Eowyn's Suffer EEternity Hospital,997 Waldolf Rd,North Creek,Washington,98295,,Steven.Eowyn@hospitalhospital.org
476,zjvss-6245-19714,Turin's Charity Target and Taxi,577 Gaslight Ave,Denton,Texas,78676,,Eva.Turin@charitytaxi.us
477,nou-810-387,Gorbag's Climate Quote and Residential Care Facility,620 Harrison Ln,Wilton,Connecticut,6875,701-351-8512,Theodore.Gorbag@climateresidentialcarefacility.biz
478,5592-stdpu-413,Ancalagon's Poetry Question and Food and Hospitality,425 Wise Place,Madison Heights,Michigan,48710,458-900-7697,
479,977-uhc-2555,James's AAnnalle Quote and Building Inspection,1769 Hampton Path,Hazelwood,Missouri,63651,262-129-1648,buildinginspection@James.com
480,sye-688-55846,Patricia's Test JJinx Catering,1713 Tedrick Drive,Green Bay,Wisconsin,54020,262-212-9148,catering@Patricia.net
481,epvm-8723-1265,Alexis's Uncle Release and Real Estate Agency,1699 Devin Heights,Watertown,Wisconsin,53057,401-519-7085,realestateagency@Alexisuncle.co.uk
482,ampj-1089-7100,Kenneth's Protect Reality GED Certification,1538 Brick Ln,Westerly,Rhode Island,2896,303-413-0206,Ralph.Kenneth@realitygedcertification.net
483,oae-452-443,Austin's EEternity Target and Mortgage Company,1520 Julian Boulevard,Fountain,Colorado,81022,239-801-1488,mortgagecompany@Austin.com
484,819-zvq-4999,Thingol's Topic Attach and Physical Therapy,622 Uneeda Crescent,Tamiami,Florida,33330,,physicaltherapy@Thingoltopic.co.uk
485,114-pbpcf-252,Sauruman's GGail Pa Suffer and Video Production,907 Chesterfield Ridge,Paragould,Arkansas,72630,212-147-7277,videoproduction@Sauruman18.org
486,841-mittp-5311,Daniel's Disease Praise and Medical Office,1535 Leon Station,Frederick,Maryland,21684,302-645-1950,medicaloffice@Danieldisease.org
487,lmx-446-39058,Hurin's MMargo Agree and Collection Agency,1088 Lafayette St,Wilmington,Delaware,19804,203-184-7051,collectionagency@Hurincollection.net
488,9197-vhr-2507,Albert's Benefit Bath Agriculture & Forestry and Wildlife Extermination and Pest Control,424 Beechcreek Court,Branford,Connecticut,6374,252-177-7203,
489,520-syscy-778,Gandalf's Select AArc Br Radiology,722 Richey Crescent,Stoughton,Massachusetts,2187,,radiology@Gandalf.us
490,620-uufs-183,Gildor's Skill Serve and Locksmith,462 Babbs Lane,Carson City,Nevada,89515,,locksmith@Gildorskill.org
491,iaby-6390-2014,Gildor's Tension Hurry and Taxi,1627 Penn Rd,West Orange,New Jersey,8933,401-034-7111,William.Gildor@tensiontaxi.net
492,tti-250-2667,Alcarin's Twist Entertainment Credit Union,1263 Eastern Ln,East Providence,Rhode Island,2892,,Raven.Alcarin@entertainmentcreditunion.com
493,eody-836-5417,Melinda's EElza  Store and Electrolysis,938 Royalton Blvd,Dover,Delaware,19899,314-770-4644,Marishka.Melinda@electrolysis86.co.uk
494,solxr-659-44651,Hope's SSable  Hurry and Substance Abuse Services,426 Mcarthur Avenue,,New Mexico,88240,458-369-5834,Joyce.Hope@substanceabuseservices.biz
495,1350-buh-7581,Khamul's Understand Revenue Florist,1198 Basil Park,Saint Peters,Missouri,65781,,Katie.Khamul@revenueflorist.org
496,409-hluba-8988,Aldarion's JJillia Sha Develop and Publishing Services,1067 Foxfire Way,Gillette,Wyoming,82006,212-686-6807,Beverly.Aldarion@publishingservices68.biz
497,8527-hoi-578,Hanna's Assumption Twist and Oil and Gas Distribution,1116 Flintridge Road,Rossville,Maryland,21714,219-010-7255,Hanna.Hanna@assumptionoilandgasdistribution.org
498,80017-gkaiv-263,Wormtongue's Judge JJinx Credit Union,927 Brookside Terrace,Frankfort,Indiana,47459,215-151-0165,creditunion@Wormtongue.co.uk
499,8735-ycbao-968,Huan's Confess WWish  Alcohol and Tobacco Sales,1595 Redondo Place,West Chester,Pennsylvania,17345,276-076-9860,alcoholandtobaccosales@Huan97.net
